{"type":"FeatureCollection","features":[{"type":"Feature","id":"way/407388915","properties":{"amenity":"bar","amenity_1":"restaurant","building":"yes","operator":"Lido Mennea","id":"way/407388915"},"geometry":{"type":"Polygon","coordinates":[[[16.2598026,41.3287655],[16.2597663,41.328782],[16.2593029,41.3289927],[16.2592243,41.3288976],[16.259731,41.3286745],[16.2598026,41.3287655]]]}},{"type":"Feature","id":"way/407434278","properties":{"amenity":"bar","brewery":"no","building":"yes","drink:coffee":"yes","id":"way/407434278"},"geometry":{"type":"Polygon","coordinates":[[[16.2950014,41.31701],[16.2949231,41.3170316],[16.2949025,41.3170613],[16.2947808,41.3170167],[16.2948253,41.316946],[16.2949086,41.3169817],[16.2949286,41.3169789],[16.2949143,41.3169487],[16.2949656,41.3169359],[16.2950014,41.31701]]]}},{"type":"Feature","id":"node/615632982","properties":{"amenity":"bar","name":"Caffe Fanfulla","outdoor_seating":"yes","id":"node/615632982"},"geometry":{"type":"Point","coordinates":[16.2837548,41.3211588]}},{"type":"Feature","id":"node/1807987423","properties":{"amenity":"bar","name":"Caffetteria Venezia","id":"node/1807987423"},"geometry":{"type":"Point","coordinates":[16.2731689,41.3061271]}},{"type":"Feature","id":"node/5520424768","properties":{"amenity":"bar","name":"Levante","id":"node/5520424768"},"geometry":{"type":"Point","coordinates":[16.2943294,41.3217123]}},{"type":"Feature","id":"node/5520433078","properties":{"amenity":"bar","name":"Beach Bar Coffe","id":"node/5520433078"},"geometry":{"type":"Point","coordinates":[16.2937423,41.3217506]}},{"type":"Feature","id":"node/5785022300","properties":{"addr:housenumber":"188","addr:street":"Via Dante Alighieri","amenity":"bar","name":"Bar Pasticceria Helen","phone":"+39 0883 349723","shop":"pastry","id":"node/5785022300"},"geometry":{"type":"Point","coordinates":[16.2844768,41.3056142]}},{"type":"Feature","id":"node/9202231729","properties":{"amenity":"bar","name":"Vancouver","id":"node/9202231729"},"geometry":{"type":"Point","coordinates":[16.2686778,41.313569]}},{"type":"Feature","id":"node/9666138320","properties":{"addr:housenumber":"45","addr:street":"Via Imbriani","amenity":"bar","name":"Twine","opening_hours":"Tu-Sa 07:00-00:00","id":"node/9666138320"},"geometry":{"type":"Point","coordinates":[16.2799955,41.3181216]}},{"type":"Feature","id":"node/9672075190","properties":{"addr:housenumber":"131","addr:street":"Corso Garibaldi","amenity":"bar","check_date":"2022-07-17","coffee":"yes","cuisine":"breakfast","indoor_seating":"yes","internet_access":"no","name":"Brooklyn café","opening_hours":"Mo-Su 07:00-22:00+","outdoor_seating":"yes","payment:credit_cards":"yes","payment:mastercard":"yes","payment:visa":"yes","phone":"+39 0883 171 4905","ref:vatin":"08583200723","smoking":"no","source":"survey","wheelchair":"limited","id":"node/9672075190"},"geometry":{"type":"Point","coordinates":[16.2834984,41.3200837]}},{"type":"Feature","id":"node/9678003749","properties":{"air_conditioning":"yes","amenity":"bar","check_date":"2022-07-10","name":"CAFFÈ 57","payment:mastercard":"yes","payment:visa":"yes","wheelchair":"limited","id":"node/9678003749"},"geometry":{"type":"Point","coordinates":[16.2810015,41.318559]}},{"type":"Feature","id":"node/9878663663","properties":{"addr:housenumber":"34","addr:street":"Via Cavour","amenity":"bar","check_date":"2022-07-12","internet_access":"no","name":"La Farmacia","payment:mastercard":"yes","payment:visa":"yes","wheelchair":"yes","id":"node/9878663663"},"geometry":{"type":"Point","coordinates":[16.2848896,41.3193907]}},{"type":"Feature","id":"node/9880727142","properties":{"addr:floor":"G","addr:housenumber":"1, 3, 5","addr:street":"Via Michele Morelli","amenity":"bar","check_date":"2022-07-11","internet_access":"no","level":"0","name":"Boulevard Cafè","payment:mastercard":"yes","payment:visa":"yes","wheelchair":"limited","id":"node/9880727142"},"geometry":{"type":"Point","coordinates":[16.2805018,41.3041325]}},{"type":"Feature","id":"node/9899388011","properties":{"addr:housenumber":"12","addr:street":"Via Mura San Cataldo","amenity":"bar","check_date":"2022-07-20","internet_access":"no","name":"Oz Bar","outdoor_seating":"yes","payment:mastercard":"yes","payment:visa":"yes","smoking":"no","wheelchair":"no","id":"node/9899388011"},"geometry":{"type":"Point","coordinates":[16.2855765,41.3213886]}},{"type":"Feature","id":"node/9899388012","properties":{"addr:housenumber":"14","addr:street":"Via Mura San Cataldo","air_conditioning":"yes","amenity":"bar","brewery":"yes;various","check_date":"2022-07-20","internet_access":"no","name":"Jah Bar","opening_hours":"11:00-03:00","outdoor_seating":"yes","payment:credit_cards":"yes","payment:debit_cards":"yes","payment:mastercard":"yes","payment:visa":"yes","smoking":"no","wheelchair":"no","id":"node/9899388012"},"geometry":{"type":"Point","coordinates":[16.2853978,41.32139]}},{"type":"Feature","id":"node/9899388013","properties":{"addr:housenumber":"28","addr:street":"Via Marino Bruno","amenity":"bar","check_date":"2022-07-20","internet_access":"no","name":"La Distilleria","payment:credit_cards":"yes","payment:mastercard":"yes","payment:visa":"yes","wheelchair":"no","id":"node/9899388013"},"geometry":{"type":"Point","coordinates":[16.2853517,41.3211954]}},{"type":"Feature","id":"node/9899440615","properties":{"addr:housenumber":"4","addr:street":"Via Mura San Cataldo","amenity":"bar","brewery":"yes","check_date":"2022-07-20","internet_access":"no","name":"Makai","outdoor_seating":"yes","payment:mastercard":"yes","payment:visa":"yes","wheelchair":"no","id":"node/9899440615"},"geometry":{"type":"Point","coordinates":[16.286381,41.3213334]}},{"type":"Feature","id":"node/9899496418","properties":{"addr:housenumber":"57","addr:street":"Piazza Castello","amenity":"bar","brewery":"yes","check_date":"2022-07-20","internet_access":"no","name":"Samanà","outdoor_seating":"yes","payment:mastercard":"yes","payment:visa":"yes","wheelchair":"no","id":"node/9899496418"},"geometry":{"type":"Point","coordinates":[16.286663,41.3212012]}},{"type":"Feature","id":"node/9900202102","properties":{"addr:housenumber":"14, 16, 18","addr:street":"Corso Vittorio Emanuele","air_conditioning":"yes","amenity":"bar","check_date":"2022-07-20","internet_access":"no","name":"Caffè del Corso","outdoor_seating":"yes","payment:credit_cards":"yes","payment:mastercard":"yes","payment:visa":"yes","smoking":"no","source":"survey","wheelchair":"no","id":"node/9900202102"},"geometry":{"type":"Point","coordinates":[16.2816954,41.3193793]}},{"type":"Feature","id":"node/9900238708","properties":{"addr:housenumber":"46, 48","addr:street":"Corso Vittorio Emanuele","amenity":"bar","check_date":"2022-07-20","coffee":"yes","internet_access":"no","name":"Kofler","opening_hours":"06:00-13:00,15:00-21:30","payment:credit_cards":"yes","payment:mastercard":"yes","payment:visa":"yes","wheelchair":"no","id":"node/9900238708"},"geometry":{"type":"Point","coordinates":[16.2809822,41.3196361]}},{"type":"Feature","id":"node/9919618512","properties":{"addr:housenumber":"54","addr:street":"Piazza Marina","amenity":"bar","check_date":"2022-07-29","internet_access":"no","wheelchair":"no","id":"node/9919618512"},"geometry":{"type":"Point","coordinates":[16.2847949,41.3223201]}},{"type":"Feature","id":"node/9919618513","properties":{"addr:housenumber":"49","addr:street":"Piazza Marina","amenity":"bar","check_date":"2022-07-29","internet_access":"no","name":"La Piazzetta","wheelchair":"no","id":"node/9919618513"},"geometry":{"type":"Point","coordinates":[16.2848182,41.3224684]}},{"type":"Feature","id":"node/9919658886","properties":{"addr:housenumber":"31","addr:street":"Piazzetta del Duomo","amenity":"bar","brewery":"yes","check_date":"2022-07-29","internet_access":"no","name":"Limes cafè","outdoor_seating":"yes","payment:credit_cards":"yes","payment:mastercard":"yes","payment:visa":"yes","wheelchair":"no","id":"node/9919658886"},"geometry":{"type":"Point","coordinates":[16.2868085,41.3200321]}},{"type":"Feature","id":"node/9919658887","properties":{"addr:housenumber":"20","addr:street":"Piazzetta del Duomo","amenity":"bar","check_date":"2022-07-29","internet_access":"no","name":"Sophie Cafè","outdoor_seating":"yes","payment:credit_cards":"yes","payment:mastercard":"yes","payment:visa":"yes","wheelchair":"no","id":"node/9919658887"},"geometry":{"type":"Point","coordinates":[16.2869356,41.3198088]}}]}