{"type":"FeatureCollection","features":[{"type":"Feature","id":"node/4144213208","properties":{"guest_house":"bed_and_breakfast","name":"B&B Liddo","source":"survey","tourism":"guest_house","id":"node/4144213208"},"geometry":{"type":"Point","coordinates":[16.2871012,41.3179118]}},{"type":"Feature","id":"node/5174819943","properties":{"addr:city":"Barletta","addr:housenumber":"3","addr:postcode":"76121","addr:street":"Via Pietro Riczio","internet_access":"no","internet_access:fee":"no","name":"Suite Harmony Room","phone:mobile":"+39 392 0246230","rooms":"1","tourism":"guest_house","website":"https://suite-harmony-room5.webnode.it/contatti/","id":"node/5174819943"},"geometry":{"type":"Point","coordinates":[16.2853515,41.3208861]}},{"type":"Feature","id":"node/6249712886","properties":{"internet_access":"wlan","name":"B&B Eracliio","tourism":"guest_house","id":"node/6249712886"},"geometry":{"type":"Point","coordinates":[16.2781356,41.3218006]}},{"type":"Feature","id":"node/6249712888","properties":{"name":"RedMood Guesthouse","tourism":"guest_house","id":"node/6249712888"},"geometry":{"type":"Point","coordinates":[16.2813829,41.320732]}},{"type":"Feature","id":"node/9802692398","properties":{"addr:city":"Barletta","addr:housenumber":"102","addr:postcode":"76121","addr:street":"Via Mariano Sante","contact:mobile":"+39 389 1412504","contact:website":"https://casalopez.it","name":"Bed & Breakfast Casa Lopez","tourism":"guest_house","id":"node/9802692398"},"geometry":{"type":"Point","coordinates":[16.2820491,41.3208119]}},{"type":"Feature","id":"node/9878663661","properties":{"check_date":"2022-07-10","guest_house":"bed_and_breakfast","name":"B&B le Muse","phone":"+39 0883 888634;+39 351 205 2537","rooms":"3","tourism":"guest_house","id":"node/9878663661"},"geometry":{"type":"Point","coordinates":[16.2856902,41.3192721]}},{"type":"Feature","id":"node/9878724502","properties":{"addr:housenumber":"2, 4","addr:street":"Via Mariano Abignenti","check_date":"2022-07-10","guest_house":"bed_and_breakfast","name":"B&B Il Campanile","phone":"+39 349 512 4428","tourism":"guest_house","id":"node/9878724502"},"geometry":{"type":"Point","coordinates":[16.286128,41.3208166]}},{"type":"Feature","id":"node/9883527405","properties":{"addr:housenumber":"2","addr:street":"Via III Novembre","air_conditioning":"yes","check_date":"2022-07-12","guest_house":"bed_and_breakfast","internet_access":"wlan","internet_access:fee":"no","name":"Conte Cavour","payment:coins":"yes","payment:credit_cards":"yes","phone":"+39 0883 897660","reservation":"yes","smoking":"no","tourism":"guest_house","wheelchair":"limited","id":"node/9883527405"},"geometry":{"type":"Point","coordinates":[16.2874943,41.3187399]}},{"type":"Feature","id":"node/9884919788","properties":{"addr:housenumber":"11","addr:street":"Via Fanfulla da Lodi","check_date":"2022-07-13","email":"info@vinslounge.it","guest_house":"bed_and_breakfast","internet_access":"yes","internet_access:fee":"no","name":"Vins Lounge","phone":"+39 0883 390788; +39 347 591 6026","rooms":"3","tourism":"guest_house","website":"https://www.vinslounge.it/","id":"node/9884919788"},"geometry":{"type":"Point","coordinates":[16.2856363,41.3200004]}},{"type":"Feature","id":"node/9884919789","properties":{"addr:housenumber":"2","addr:street":"Via Ettore Giovenale","check_date":"2022-07-13","email":"info@sebeluxuryrooms.it","guest_house":"bed_and_breakfast","internet_access":"yes","internet_access:fee":"no","name":"Seb√©l luxury rooms","phone":"+39 370 347 6316","rooms":"2","tourism":"guest_house","website":"https://www.sebeluxuryrooms.it/","id":"node/9884919789"},"geometry":{"type":"Point","coordinates":[16.2858408,41.3201829]}},{"type":"Feature","id":"node/9884919790","properties":{"addr:housenumber":"34","addr:street":"Via Ettore Giovenale","check_date":"2022-07-13","guest_house":"bed_and_breakfast","name":"Brezza Marina","rooms":"2","tourism":"guest_house","id":"node/9884919790"},"geometry":{"type":"Point","coordinates":[16.2859349,41.3201979]}},{"type":"Feature","id":"node/9899472496","properties":{"addr:housenumber":"12","addr:street":"Via Rue Chiusa","check_date":"2022-07-20","guest_house":"bed_and_breakfast","name":"La disfida di Barletta","rooms":"2","tourism":"guest_house","id":"node/9899472496"},"geometry":{"type":"Point","coordinates":[16.2855119,41.3200302]}},{"type":"Feature","id":"node/9899496419","properties":{"addr:housenumber":"56a","addr:street":"Piazza Castello","check_date":"2022-07-20","guest_house":"bed_and_breakfast","name":"Al Castello","rooms":"2","tourism":"guest_house","id":"node/9899496419"},"geometry":{"type":"Point","coordinates":[16.2866659,41.3211598]}},{"type":"Feature","id":"node/9899526015","properties":{"addr:housenumber":"1","addr:street":"Vico Gloria","check_date":"2022-07-20","guest_house":"bed_and_breakfast","name":"Il Purgatorio","phone":"+39 331 218 1800","reservation":"yes","tourism":"guest_house","website":"https://www.bbilpurgatorio.it/","id":"node/9899526015"},"geometry":{"type":"Point","coordinates":[16.2835567,41.3204045]}},{"type":"Feature","id":"node/9900202099","properties":{"addr:floor":"1, 2","addr:housenumber":"4","addr:street":"Corso Vittorio Emanuele","check_date":"2022-07-20","guest_house":"bed_and_breakfast","level":"0","name":"Bed & Breakfast Bonadies","phone":"+39 347 787 3656; +39 339 305 9566","rooms":"2","tourism":"guest_house","id":"node/9900202099"},"geometry":{"type":"Point","coordinates":[16.2819828,41.319215]}},{"type":"Feature","id":"node/9900238707","properties":{"addr:housenumber":"44","addr:street":"Corso Vittorio Emanuele","check_date":"2022-07-20","guest_house":"bed_and_breakfast","name":"Kofler","rooms":"3","tourism":"guest_house","id":"node/9900238707"},"geometry":{"type":"Point","coordinates":[16.2810475,41.3196172]}},{"type":"Feature","id":"node/9903670032","properties":{"addr:housenumber":"60","addr:street":"Via Nazareth","check_date":"2022-07-22","guest_house":"bed_and_breakfast","name":"Nazareth","phone":"+39 328 562 1506; +39 339 856 8150","rooms":"1","tourism":"guest_house","id":"node/9903670032"},"geometry":{"type":"Point","coordinates":[16.2825721,41.3203966]}},{"type":"Feature","id":"node/9918865532","properties":{"addr:housenumber":"18","addr:street":"Via Abenevoli","check_date":"2022-07-29","email":"info@beberaclio.it","guest_house":"bed_and_breakfast","name":"Eraclio Suite","phone":"+39 380 453 2400; +39 346 600 8380","rooms":"3","tourism":"guest_house","website":"https://www.beberaclio.it/","id":"node/9918865532"},"geometry":{"type":"Point","coordinates":[16.2865399,41.3211055]}},{"type":"Feature","id":"node/9919618511","properties":{"addr:housenumber":"20","addr:street":"Via Pietro Riczio","air_conditioning":"yes","check_date":"2022-07-29","guest_house":"bed_and_breakfast","name":"DomaTia","payment:apple_pay":"yes","payment:cash":"yes","payment:credit_cards":"yes","payment:google_pay":"yes","payment:mastercard":"yes","payment:visa":"yes","payment:visa_debit":"yes","payment:visa_electron":"yes","phone":"+39 388 099 1799","reservation":"yes","smoking":"no","tourism":"guest_house","website":"https://www.domatia.it/","wheelchair":"limited","id":"node/9919618511"},"geometry":{"type":"Point","coordinates":[16.2855384,41.3210139]}}]}