{"type":"FeatureCollection","features":[{"type":"Feature","id":"node/2529348582","properties":{"bench":"yes","highway":"bus_stop","name":"Via Paolo Ricci","network":"Navetta B - Navetta C - Linea 4","id":"node/2529348582"},"geometry":{"type":"Point","coordinates":[16.2726713,41.3064032]}},{"type":"Feature","id":"node/2529349865","properties":{"bus":"yes","highway":"bus_stop","name":"Stazione C.le","public_transport":"platform","shelter":"no","id":"node/2529349865"},"geometry":{"type":"Point","coordinates":[16.2784487,41.3155747]}},{"type":"Feature","id":"node/2529350839","properties":{"bus":"yes","highway":"bus_stop","name":"Via Andria - Casermette","operator":"Ferrotramviaria","public_transport":"platform","id":"node/2529350839"},"geometry":{"type":"Point","coordinates":[16.2893595,41.3083392]}},{"type":"Feature","id":"node/2529353908","properties":{"bench":"yes","highway":"bus_stop","name":"Ospedale \"Dimiccoli\"","network":"Linea 1 - Linea 1 BIS Z.I. - Linea 2 - Linea 3 - Linea 4 - Linea 11 - Navetta A","operator":"Autolinee Scoppio","shelter":"yes","id":"node/2529353908"},"geometry":{"type":"Point","coordinates":[16.2553069,41.3137557]}},{"type":"Feature","id":"node/2529355047","properties":{"bus":"yes","highway":"bus_stop","name":"Litoranea di Levante","operator":"Autolinee Scoppio","public_transport":"platform","id":"node/2529355047"},"geometry":{"type":"Point","coordinates":[16.298981,41.319879]}},{"type":"Feature","id":"node/2529355485","properties":{"bus":"yes","highway":"bus_stop","name":"Cimitero","operator":"Autolinee Scoppio","public_transport":"platform","id":"node/2529355485"},"geometry":{"type":"Point","coordinates":[16.256168,41.325547]}},{"type":"Feature","id":"node/2529355977","properties":{"highway":"bus_stop","name":"Via Barberini","network":"Linea 2 - Linea 4","operator":"Autolinee Scoppio","id":"node/2529355977"},"geometry":{"type":"Point","coordinates":[16.2720367,41.3092559]}},{"type":"Feature","id":"node/2529356344","properties":{"highway":"bus_stop","name":"Via delle Querce","network":"Navetta B - Linea 11 - Linea 4","operator":"Autolinee Scoppio","id":"node/2529356344"},"geometry":{"type":"Point","coordinates":[16.2689461,41.307004]}},{"type":"Feature","id":"node/2529356428","properties":{"bench":"yes","bus":"yes","highway":"bus_stop","name":"Via Canosa","network":"Navetta A","operator":"Autolinee Scoppio","public_transport":"platform","id":"node/2529356428"},"geometry":{"type":"Point","coordinates":[16.2671902,41.3128862]}},{"type":"Feature","id":"node/4112350660","properties":{"highway":"bus_stop","name":"Viale Da Vinci","network":"Navetta B - Navetta C","operator":"Autolinee Scoppio","id":"node/4112350660"},"geometry":{"type":"Point","coordinates":[16.277626,41.3064131]}},{"type":"Feature","id":"node/4112350661","properties":{"highway":"bus_stop","name":"Via Lattanzio","network":"Navetta B - Navetta C - Linea 4","operator":"Autolinee Scoppio","id":"node/4112350661"},"geometry":{"type":"Point","coordinates":[16.2784551,41.3055248]}},{"type":"Feature","id":"node/4112378303","properties":{"bench":"yes","highway":"bus_stop","name":"Viale Da Vinci","network":"Navetta B - Linea 3 - Linea 1 BIS Z.I.","operator":"Autolinee Scoppio","id":"node/4112378303"},"geometry":{"type":"Point","coordinates":[16.2781919,41.3082366]}},{"type":"Feature","id":"node/4112389613","properties":{"bench":"yes","highway":"bus_stop","name":"Viale Da Vinci","network":"Navetta B - Navetta C - Linea 1 BIS Z.I. - Linea 2","operator":"Autolinee Scoppio","id":"node/4112389613"},"geometry":{"type":"Point","coordinates":[16.2780308,41.3082621]}},{"type":"Feature","id":"node/4112389614","properties":{"bench":"yes","highway":"bus_stop","name":"Viale delle Belle Arti","network":"Linea 2 - Linea 3 - Linea 4 - Linea 1 BIS Z.I. - Navetta C","operator":"Autolinee Scoppio","id":"node/4112389614"},"geometry":{"type":"Point","coordinates":[16.2762437,41.3075032]}},{"type":"Feature","id":"node/4112389615","properties":{"highway":"bus_stop","name":"Viale delle Belle Arti","network":"Linea 1 BIS Z.I. - Linea 2 - Linea 3 - Linea 4 - Navetta C","operator":"Autolinee Scoppio","id":"node/4112389615"},"geometry":{"type":"Point","coordinates":[16.2738788,41.3080331]}},{"type":"Feature","id":"node/4112389616","properties":{"highway":"bus_stop","name":"Via Paolo Ricci","network":"Navetta B - Navetta C - Linea 4","id":"node/4112389616"},"geometry":{"type":"Point","coordinates":[16.2756649,41.3059508]}},{"type":"Feature","id":"node/4112389617","properties":{"highway":"bus_stop","name":"Via Barberini","network":"Linea 3 - Navetta C","operator":"Autolinee Scoppio","id":"node/4112389617"},"geometry":{"type":"Point","coordinates":[16.2716275,41.3086578]}},{"type":"Feature","id":"node/4112389618","properties":{"highway":"bus_stop","name":"Via delle Querce","network":"Navetta B - Linea 3 - Linea 4","operator":"Autolinee Scoppio","id":"node/4112389618"},"geometry":{"type":"Point","coordinates":[16.2692695,41.3067719]}},{"type":"Feature","id":"node/4112389619","properties":{"highway":"bus_stop","name":"Via delle Querce","network":"Navetta B - Linea 11","operator":"Autolinee Scoppio","id":"node/4112389619"},"geometry":{"type":"Point","coordinates":[16.2671308,41.3079405]}},{"type":"Feature","id":"node/4112389620","properties":{"bench":"yes","highway":"bus_stop","name":"Via dei Salici","network":"Linea 3 - Linea 4 - Linea 11 - Navetta B","operator":"Autolinee Scoppio","shelter":"yes","id":"node/4112389620"},"geometry":{"type":"Point","coordinates":[16.2632987,41.3082769]}},{"type":"Feature","id":"node/4112389621","properties":{"highway":"bus_stop","name":"Via delle Mimose","network":"Navetta B","operator":"Autolinee Scoppio","shelter":"yes","id":"node/4112389621"},"geometry":{"type":"Point","coordinates":[16.2638822,41.3064022]}},{"type":"Feature","id":"node/4112389622","properties":{"highway":"bus_stop","name":"Via dei Mandorli","network":"Navetta B","operator":"Autolinee Scoppio","id":"node/4112389622"},"geometry":{"type":"Point","coordinates":[16.2619221,41.3065765]}},{"type":"Feature","id":"node/4112389623","properties":{"highway":"bus_stop","name":"Via Minervino","network":"Navetta B","operator":"Autolinee Scoppio","id":"node/4112389623"},"geometry":{"type":"Point","coordinates":[16.2619251,41.3077421]}},{"type":"Feature","id":"node/4112390791","properties":{"bus":"yes","highway":"bus_stop","name":"Via Pirandello","network":"Linea 2 - Linea 3 - Linea 4","operator":"Autolinee Scoppio","public_transport":"platform","id":"node/4112390791"},"geometry":{"type":"Point","coordinates":[16.2800894,41.3094931]}},{"type":"Feature","id":"node/4112390792","properties":{"bus":"yes","highway":"bus_stop","name":"Via Pirandello","network":"Linea 3","operator":"Autolinee Scoppio","public_transport":"platform","id":"node/4112390792"},"geometry":{"type":"Point","coordinates":[16.2824654,41.3089992]}},{"type":"Feature","id":"node/4112390793","properties":{"bus":"yes","highway":"bus_stop","name":"Via Madonna della Croce","network":"Linea 1 BIS Z.I. - Linea 2","operator":"Autolinee Scoppio","public_transport":"platform","id":"node/4112390793"},"geometry":{"type":"Point","coordinates":[16.2680356,41.3112442]}},{"type":"Feature","id":"node/4112390794","properties":{"bus":"yes","highway":"bus_stop","name":"Via Izzi","operator":"Autolinee Scoppio","public_transport":"platform","id":"node/4112390794"},"geometry":{"type":"Point","coordinates":[16.2656105,41.3119673]}},{"type":"Feature","id":"node/4112390795","properties":{"bench":"yes","bus":"yes","highway":"bus_stop","name":"Via Achille Bruni","operator":"Autolinee Scoppio","public_transport":"platform","id":"node/4112390795"},"geometry":{"type":"Point","coordinates":[16.2662067,41.3131993]}},{"type":"Feature","id":"node/4112390796","properties":{"bench":"yes","highway":"bus_stop","name":"Via Achille Bruni","network":"Linea 1 BIS Z.I. - Linea 1","operator":"Autolinee Scoppio","id":"node/4112390796"},"geometry":{"type":"Point","coordinates":[16.265108,41.3148852]}},{"type":"Feature","id":"node/4112397009","properties":{"highway":"bus_stop","name":"Via Minervino (Polivalente)","network":"Linea 2 - Linea 3 - Linea 4 - Navetta A - Navetta B","operator":"Autolinee Scoppio","id":"node/4112397009"},"geometry":{"type":"Point","coordinates":[16.2650803,41.3103569]}},{"type":"Feature","id":"node/4112397010","properties":{"highway":"bus_stop","name":"Vicinale Crocevia Bonelli","network":"Navetta C","operator":"Autolinee Scoppio","id":"node/4112397010"},"geometry":{"type":"Point","coordinates":[16.2749238,41.3033783]}},{"type":"Feature","id":"node/4112397011","properties":{"highway":"bus_stop","name":"Viale Dante Alighieri","network":"Linea 3 - Navetta C","operator":"Autolinee Scoppio","id":"node/4112397011"},"geometry":{"type":"Point","coordinates":[16.2843612,41.3052926]}},{"type":"Feature","id":"node/4112397012","properties":{"bench":"yes","bus":"yes","highway":"bus_stop","name":"Viale Dante Alighieri","operator":"Autolinee Scoppio","public_transport":"platform","id":"node/4112397012"},"geometry":{"type":"Point","coordinates":[16.2857618,41.307907]}},{"type":"Feature","id":"node/4112397013","properties":{"bus":"yes","highway":"bus_stop","name":"Via Patalini","network":"Linea 2 - Linea 3","operator":"Autolinee Scoppio","public_transport":"platform","id":"node/4112397013"},"geometry":{"type":"Point","coordinates":[16.2860447,41.3091112]}},{"type":"Feature","id":"node/4112397014","properties":{"bus":"yes","highway":"bus_stop","name":"Via Zanardelli","network":"Linea 2 - Linea 3","operator":"Autolinee Scoppio","public_transport":"platform","id":"node/4112397014"},"geometry":{"type":"Point","coordinates":[16.2860203,41.3114401]}},{"type":"Feature","id":"node/4112397015","properties":{"bus":"yes","highway":"bus_stop","name":"Via Zanardelli","network":"Linea 2 - Linea 3 - Navetta C","operator":"Autolinee Scoppio","public_transport":"platform","id":"node/4112397015"},"geometry":{"type":"Point","coordinates":[16.2864733,41.3127188]}},{"type":"Feature","id":"node/4112397016","properties":{"bus":"yes","highway":"bus_stop","name":"Viale Dante Alighieri","network":"Linea 4 - Navetta B","operator":"Autolinee Scoppio","public_transport":"platform","id":"node/4112397016"},"geometry":{"type":"Point","coordinates":[16.2854191,41.312785]}},{"type":"Feature","id":"node/4112397017","properties":{"bench":"no","bin":"no","bus":"yes","highway":"bus_stop","lit":"yes","name":"Via Leopardi","network":"Linea 2 - Linea 11","operator":"Autolinee Scoppio","public_transport":"platform","shelter":"no","tactile_paving":"no","id":"node/4112397017"},"geometry":{"type":"Point","coordinates":[16.2824918,41.3102118]}},{"type":"Feature","id":"node/4112397018","properties":{"bench":"no","bin":"no","bus":"yes","highway":"bus_stop","lit":"yes","name":"Via Leopardi","network":"Linea 2 - Linea 11","operator":"Autolinee Scoppio","public_transport":"platform","shelter":"no","tactile_paving":"no","id":"node/4112397018"},"geometry":{"type":"Point","coordinates":[16.2810031,41.3107528]}},{"type":"Feature","id":"node/4112397019","properties":{"bench":"yes","bus":"yes","highway":"bus_stop","name":"Viale Dante Alighieri","network":"Linea 11","operator":"Autolinee Scoppio","public_transport":"platform","id":"node/4112397019"},"geometry":{"type":"Point","coordinates":[16.285137,41.3099013]}},{"type":"Feature","id":"node/4112410006","properties":{"bench":"no","bin":"no","bus":"yes","highway":"bus_stop","name":"Lungomare Mennea","operator":"Autolinee Scoppio","public_transport":"platform","shelter":"no","tactile_paving":"no","id":"node/4112410006"},"geometry":{"type":"Point","coordinates":[16.262444,41.3275324]}},{"type":"Feature","id":"node/4112410007","properties":{"bus":"yes","highway":"bus_stop","name":"Lungomare Mennea","operator":"Autolinee Scoppio","public_transport":"platform","id":"node/4112410007"},"geometry":{"type":"Point","coordinates":[16.2594219,41.328621]}},{"type":"Feature","id":"node/4112410008","properties":{"bus":"yes","highway":"bus_stop","name":"Lungomare Mennea","operator":"Autolinee Scoppio","public_transport":"platform","id":"node/4112410008"},"geometry":{"type":"Point","coordinates":[16.2573498,41.3294452]}},{"type":"Feature","id":"node/4112410009","properties":{"bench":"no","bin":"no","highway":"bus_stop","name":"Lungomare Mennea","operator":"Autolinee Scoppio","shelter":"no","tactile_paving":"no","id":"node/4112410009"},"geometry":{"type":"Point","coordinates":[16.2700462,41.3248494]}},{"type":"Feature","id":"node/4112410010","properties":{"bench":"no","bin":"no","bus":"yes","highway":"bus_stop","name":"Lungomare Mennea","operator":"Autolinee Scoppio","public_transport":"platform","shelter":"no","tactile_paving":"no","id":"node/4112410010"},"geometry":{"type":"Point","coordinates":[16.272272,41.3242731]}},{"type":"Feature","id":"node/4112410011","properties":{"bench":"no","bin":"no","bus":"yes","highway":"bus_stop","name":"Lungomare Mennea","operator":"Autolinee Scoppio","public_transport":"platform","shelter":"no","tactile_paving":"no","id":"node/4112410011"},"geometry":{"type":"Point","coordinates":[16.276728,41.3234057]}},{"type":"Feature","id":"node/4112410012","properties":{"bench":"no","bin":"no","bus":"yes","highway":"bus_stop","lit":"yes","name":"Lungomare Mennea","operator":"Autolinee Scoppio","public_transport":"platform","shelter":"no","tactile_paving":"no","id":"node/4112410012"},"geometry":{"type":"Point","coordinates":[16.2803232,41.3230792]}},{"type":"Feature","id":"node/4112410013","properties":{"bench":"no","bin":"no","bus":"yes","highway":"bus_stop","name":"Lungomare Mennea","operator":"Autolinee Scoppio","public_transport":"platform","shelter":"no","tactile_paving":"no","id":"node/4112410013"},"geometry":{"type":"Point","coordinates":[16.2825222,41.3234216]}},{"type":"Feature","id":"node/4112410014","properties":{"bench":"no","bin":"no","bus":"yes","highway":"bus_stop","lit":"yes","name":"Lungomare Mennea (Porto)","operator":"Autolinee Scoppio","public_transport":"platform","shelter":"no","tactile_paving":"no","id":"node/4112410014"},"geometry":{"type":"Point","coordinates":[16.2842975,41.3239987]}},{"type":"Feature","id":"node/4118742427","properties":{"bench":"no","bin":"yes","bus":"yes","highway":"bus_stop","name":"Viale Da Vinci","operator":"Autolinee Scoppio","public_transport":"platform","shelter":"no","tactile_paving":"no","id":"node/4118742427"},"geometry":{"type":"Point","coordinates":[16.2791618,41.3100559]}},{"type":"Feature","id":"node/4118742428","properties":{"bench":"no","bin":"no","bus":"yes","highway":"bus_stop","lit":"yes","name":"Viale Da Vinci","operator":"Autolinee Scoppio","public_transport":"platform","shelter":"no","tactile_paving":"no","id":"node/4118742428"},"geometry":{"type":"Point","coordinates":[16.2800708,41.311508]}},{"type":"Feature","id":"node/4118742429","properties":{"bench":"no","bin":"no","bus":"yes","highway":"bus_stop","lit":"yes","name":"Sottovia Alvisi","operator":"Autolinee Scoppio","public_transport":"platform","shelter":"no","tactile_paving":"no","id":"node/4118742429"},"geometry":{"type":"Point","coordinates":[16.2808512,41.3127091]}},{"type":"Feature","id":"node/4118742430","properties":{"bench":"yes","bin":"yes","bus":"yes","highway":"bus_stop","lit":"yes","name":"Via Alvisi","operator":"Autolinee Scoppio","public_transport":"platform","shelter":"yes","tactile_paving":"no","id":"node/4118742430"},"geometry":{"type":"Point","coordinates":[16.2831666,41.31649]}},{"type":"Feature","id":"node/4118742431","properties":{"bus":"yes","highway":"bus_stop","name":"Via Monfalcone","operator":"Autolinee Scoppio","public_transport":"platform","id":"node/4118742431"},"geometry":{"type":"Point","coordinates":[16.2824435,41.316129]}},{"type":"Feature","id":"node/4118742432","properties":{"bus":"yes","highway":"bus_stop","name":"Via Brigata Barletta","operator":"Autolinee Scoppio","public_transport":"platform","id":"node/4118742432"},"geometry":{"type":"Point","coordinates":[16.2807645,41.3161493]}},{"type":"Feature","id":"node/4118742433","properties":{"bench":"no","bin":"no","bus":"yes","highway":"bus_stop","lit":"no","name":"Via De Nittis","operator":"Autolinee Scoppio","public_transport":"platform","shelter":"no","tactile_paving":"no","id":"node/4118742433"},"geometry":{"type":"Point","coordinates":[16.2806819,41.3172329]}},{"type":"Feature","id":"node/4118745269","properties":{"bench":"no","bin":"no","bus":"yes","highway":"bus_stop","lit":"yes","name":"Via Trani","operator":"Autolinee Scoppio","public_transport":"platform","shelter":"no","tactile_paving":"no","id":"node/4118745269"},"geometry":{"type":"Point","coordinates":[16.2933382,41.3176036]}},{"type":"Feature","id":"node/4118751111","properties":{"bench":"no","bin":"no","bus":"yes","highway":"bus_stop","lit":"yes","name":"Via d'Aragona","operator":"Autolinee Scoppio","public_transport":"platform","shelter":"no","tactile_paving":"no","id":"node/4118751111"},"geometry":{"type":"Point","coordinates":[16.2841346,41.3179994]}},{"type":"Feature","id":"node/4118751112","properties":{"bench":"no","bin":"no","bus":"yes","highway":"bus_stop","lit":"no","name":"Via d'Aragona","operator":"Autolinee Scoppio","public_transport":"platform","shelter":"no","tactile_paving":"no","id":"node/4118751112"},"geometry":{"type":"Point","coordinates":[16.2869574,41.3178145]}},{"type":"Feature","id":"node/4118751114","properties":{"bench":"no","bin":"no","bus":"yes","highway":"bus_stop","name":"Via Libertà","operator":"Autolinee Scoppio","public_transport":"platform","shelter":"no","tactile_paving":"no","id":"node/4118751114"},"geometry":{"type":"Point","coordinates":[16.2867239,41.3170256]}},{"type":"Feature","id":"node/4118751115","properties":{"bench":"no","bin":"no","bus":"yes","highway":"bus_stop","name":"Via Libertà","operator":"Autolinee Scoppio","public_transport":"platform","shelter":"no","tactile_paving":"no","id":"node/4118751115"},"geometry":{"type":"Point","coordinates":[16.2843846,41.3171758]}},{"type":"Feature","id":"node/4118751116","properties":{"bus":"yes","highway":"bus_stop","name":"Via Libertà","operator":"Autolinee Scoppio","public_transport":"platform","id":"node/4118751116"},"geometry":{"type":"Point","coordinates":[16.2884556,41.31692]}},{"type":"Feature","id":"node/4118751117","properties":{"bench":"no","bin":"no","bus":"yes","highway":"bus_stop","lit":"no","name":"Via Andria","operator":"Autolinee Scoppio","public_transport":"platform","shelter":"no","tactile_paving":"no","id":"node/4118751117"},"geometry":{"type":"Point","coordinates":[16.2888005,41.3182307]}},{"type":"Feature","id":"node/4118751118","properties":{"bus":"yes","highway":"bus_stop","name":"Viale Regina Elena","operator":"Autolinee Scoppio","public_transport":"platform","id":"node/4118751118"},"geometry":{"type":"Point","coordinates":[16.2916123,41.3209822]}},{"type":"Feature","id":"node/4118751119","properties":{"bus":"yes","highway":"bus_stop","name":"Litoranea di Levante","operator":"Autolinee Scoppio","public_transport":"platform","id":"node/4118751119"},"geometry":{"type":"Point","coordinates":[16.2939621,41.3216778]}},{"type":"Feature","id":"node/4118751120","properties":{"bus":"yes","highway":"bus_stop","name":"Litoranea di Levante","operator":"Autolinee Scoppio","public_transport":"platform","id":"node/4118751120"},"geometry":{"type":"Point","coordinates":[16.2961005,41.3208655]}},{"type":"Feature","id":"node/4118751121","properties":{"highway":"bus_stop","name":"Via delle Misericordia","operator":"Autolinee Scoppio","id":"node/4118751121"},"geometry":{"type":"Point","coordinates":[16.2987172,41.3183274]}},{"type":"Feature","id":"node/4118751122","properties":{"bench":"no","bin":"no","bus":"yes","highway":"bus_stop","name":"Via Trani","operator":"Autolinee Scoppio","public_transport":"platform","shelter":"no","tactile_paving":"no","id":"node/4118751122"},"geometry":{"type":"Point","coordinates":[16.2969488,41.3166011]}},{"type":"Feature","id":"node/4118834793","properties":{"bench":"no","bin":"yes","bus":"yes","highway":"bus_stop","lit":"yes","name":"Via Cavour","operator":"Autolinee Scoppio","public_transport":"platform","shelter":"no","tactile_paving":"no","id":"node/4118834793"},"geometry":{"type":"Point","coordinates":[16.2862507,41.3192515]}},{"type":"Feature","id":"node/4118834794","properties":{"bench":"no","bin":"no","bus":"yes","highway":"bus_stop","lit":"yes","name":"Via Cavour","operator":"Autolinee Scoppio","public_transport":"platform","shelter":"no","tactile_paving":"no","id":"node/4118834794"},"geometry":{"type":"Point","coordinates":[16.2846358,41.3195223]}},{"type":"Feature","id":"node/4118834795","properties":{"bench":"no","bin":"yes","bus":"yes","highway":"bus_stop","lit":"yes","name":"Corso Garibaldi","operator":"Autolinee Scoppio","public_transport":"platform","shelter":"no","tactile_paving":"no","id":"node/4118834795"},"geometry":{"type":"Point","coordinates":[16.2830795,41.3196751]}},{"type":"Feature","id":"node/4118834797","properties":{"bench":"no","bin":"yes","bus":"yes","highway":"bus_stop","lit":"yes","name":"Corso Garibaldi","operator":"Autolinee Scoppio","public_transport":"platform","shelter":"no","tactile_paving":"no","id":"node/4118834797"},"geometry":{"type":"Point","coordinates":[16.2803638,41.3181913]}},{"type":"Feature","id":"node/4118834798","properties":{"bench":"no","bin":"yes","bus":"yes","highway":"bus_stop","lit":"yes","name":"Via Imbriani","operator":"Autolinee Scoppio","public_transport":"platform","shelter":"no","tactile_paving":"no","id":"node/4118834798"},"geometry":{"type":"Point","coordinates":[16.2779978,41.3172028]}},{"type":"Feature","id":"node/4118834799","properties":{"bench":"no","bin":"no","bus":"yes","highway":"bus_stop","lit":"no","name":"Via Imbriani","operator":"Autolinee Scoppio","public_transport":"platform","shelter":"no","tactile_paving":"no","id":"node/4118834799"},"geometry":{"type":"Point","coordinates":[16.2761787,41.316446]}},{"type":"Feature","id":"node/4118834800","properties":{"bench":"no","bin":"no","bus":"yes","highway":"bus_stop","lit":"no","name":"Via Canosa","operator":"Autolinee Scoppio","public_transport":"platform","shelter":"no","tactile_paving":"no","id":"node/4118834800"},"geometry":{"type":"Point","coordinates":[16.2697855,41.3138176]}},{"type":"Feature","id":"node/4118834801","properties":{"highway":"bus_stop","name":"Via Canosa","operator":"Autolinee Scoppio","shelter":"no","tactile_paving":"no","id":"node/4118834801"},"geometry":{"type":"Point","coordinates":[16.2718074,41.3146413]}},{"type":"Feature","id":"node/4118834802","properties":{"highway":"bus_stop","name":"Via Canosa","operator":"Autolinee Scoppio","shelter":"no","id":"node/4118834802"},"geometry":{"type":"Point","coordinates":[16.264116,41.3117875]}},{"type":"Feature","id":"node/4118834803","properties":{"highway":"bus_stop","name":"Via Ponchielli","operator":"Autolinee Scoppio","id":"node/4118834803"},"geometry":{"type":"Point","coordinates":[16.2606784,41.3118905]}},{"type":"Feature","id":"node/4118834804","properties":{"highway":"bus_stop","name":"Via Donizetti","operator":"Autolinee Scoppio","id":"node/4118834804"},"geometry":{"type":"Point","coordinates":[16.2609426,41.313098]}},{"type":"Feature","id":"node/4118834805","properties":{"highway":"bus_stop","name":"Via Rossini","operator":"Autolinee Scoppio","id":"node/4118834805"},"geometry":{"type":"Point","coordinates":[16.2646758,41.3145314]}},{"type":"Feature","id":"node/4118867201","properties":{"bench":"no","bin":"no","highway":"bus_stop","lit":"no","name":"Sottovia Parrilli","operator":"Autolinee Scoppio","shelter":"no","tactile_paving":"no","id":"node/4118867201"},"geometry":{"type":"Point","coordinates":[16.2611231,41.3187846]}},{"type":"Feature","id":"node/4118867202","properties":{"bench":"no","bin":"no","highway":"bus_stop","lit":"no","name":"Via Foggia","operator":"Autolinee Scoppio","shelter":"no","tactile_paving":"no","id":"node/4118867202"},"geometry":{"type":"Point","coordinates":[16.258567,41.3196891]}},{"type":"Feature","id":"node/4118867203","properties":{"highway":"bus_stop","name":"Via Foggia","operator":"Autolinee Scoppio","id":"node/4118867203"},"geometry":{"type":"Point","coordinates":[16.2557313,41.3202114]}},{"type":"Feature","id":"node/4118883439","properties":{"bus":"yes","highway":"bus_stop","name":"Via Enrico Fermi","operator":"Autolinee Scoppio","public_transport":"platform","id":"node/4118883439"},"geometry":{"type":"Point","coordinates":[16.2793059,41.3111689]}},{"type":"Feature","id":"node/4118905726","properties":{"highway":"bus_stop","name":"Via Regina Margherita","operator":"Autolinee Scoppio","id":"node/4118905726"},"geometry":{"type":"Point","coordinates":[16.2635138,41.3199075]}},{"type":"Feature","id":"node/4118905727","properties":{"highway":"bus_stop","name":"Via Regina Margherita","operator":"Autolinee Scoppio","id":"node/4118905727"},"geometry":{"type":"Point","coordinates":[16.2701045,41.3202616]}},{"type":"Feature","id":"node/4118905728","properties":{"bus":"yes","highway":"bus_stop","name":"Via Regina Margherita","operator":"Autolinee Scoppio","public_transport":"platform","id":"node/4118905728"},"geometry":{"type":"Point","coordinates":[16.2741532,41.3201472]}},{"type":"Feature","id":"node/4118905729","properties":{"bus":"yes","highway":"bus_stop","name":"Corso Vittorio Emanuele","operator":"Autolinee Scoppio","public_transport":"platform","id":"node/4118905729"},"geometry":{"type":"Point","coordinates":[16.2760161,41.3202353]}},{"type":"Feature","id":"node/4118905730","properties":{"bench":"no","bin":"no","bus":"yes","highway":"bus_stop","lit":"yes","name":"Corso Vittorio Emanuele","operator":"Autolinee Scoppio","public_transport":"platform","shelter":"no","tactile_paving":"no","id":"node/4118905730"},"geometry":{"type":"Point","coordinates":[16.2790744,41.3201243]}},{"type":"Feature","id":"node/4118905731","properties":{"bench":"no","bin":"no","bus":"yes","highway":"bus_stop","lit":"yes","name":"Via Consalvo da Cordova","operator":"Autolinee Scoppio","public_transport":"platform","shelter":"no","tactile_paving":"no","id":"node/4118905731"},"geometry":{"type":"Point","coordinates":[16.2792084,41.3198718]}},{"type":"Feature","id":"node/4118905732","properties":{"bus":"yes","highway":"bus_stop","name":"Piazza Aldo Moro","operator":"Autolinee Scoppio","public_transport":"platform","id":"node/4118905732"},"geometry":{"type":"Point","coordinates":[16.2784945,41.3186379]}},{"type":"Feature","id":"node/4118905733","properties":{"bus":"yes","highway":"bus_stop","name":"Piazza Aldo Moro","operator":"Autolinee Scoppio","public_transport":"platform","id":"node/4118905733"},"geometry":{"type":"Point","coordinates":[16.2790533,41.3185627]}},{"type":"Feature","id":"node/4118905734","properties":{"bench":"no","bin":"yes","bus":"yes","highway":"bus_stop","lit":"yes","name":"Corso Vittorio Emanuele","operator":"Autolinee Scoppio","public_transport":"platform","shelter":"no","tactile_paving":"no","id":"node/4118905734"},"geometry":{"type":"Point","coordinates":[16.2815846,41.3192926]}},{"type":"Feature","id":"node/4118971820","properties":{"highway":"bus_stop","name":"Via Fracanzano","operator":"Autolinee Scoppio","id":"node/4118971820"},"geometry":{"type":"Point","coordinates":[16.2666816,41.3165354]}},{"type":"Feature","id":"node/4118971821","properties":{"bus":"yes","highway":"bus_stop","name":"Via Fracanzano","operator":"Autolinee Scoppio","public_transport":"platform","id":"node/4118971821"},"geometry":{"type":"Point","coordinates":[16.2733657,41.3157233]}},{"type":"Feature","id":"node/4118971822","properties":{"bus":"yes","highway":"bus_stop","name":"Via Fracanzano","operator":"Autolinee Scoppio","public_transport":"platform","id":"node/4118971822"},"geometry":{"type":"Point","coordinates":[16.2716655,41.3159094]}},{"type":"Feature","id":"node/6835230327","properties":{"bus":"yes","highway":"bus_stop","name":"Stadio","operator":"Scoppio","public_transport":"platform","id":"node/6835230327"},"geometry":{"type":"Point","coordinates":[16.2850298,41.3122268]}},{"type":"Feature","id":"node/6840897802","properties":{"bench":"no","bin":"no","bus":"yes","highway":"bus_stop","lit":"yes","name":"Garibaldi 3","public_transport":"platform","shelter":"no","tactile_paving":"no","id":"node/6840897802"},"geometry":{"type":"Point","coordinates":[16.2811272,41.3184893]}},{"type":"Feature","id":"node/6840897803","properties":{"bench":"no","bin":"no","bus":"yes","departures_board":"timetable","highway":"bus_stop","lit":"yes","name":"Santa Lucia","operator":"Paolo Scoppio & Figlio Autolinee S.R.L.","public_transport":"platform","shelter":"no","tactile_paving":"no","id":"node/6840897803"},"geometry":{"type":"Point","coordinates":[16.2854754,41.3193336]}},{"type":"Feature","id":"node/8918975617","properties":{"bench":"yes","bin":"no","bus":"yes","highway":"bus_stop","lit":"yes","name:en":"Bus to Andria (July 21)","name:signed":"no","public_transport":"platform","shelter":"yes","tactile_paving":"no","id":"node/8918975617"},"geometry":{"type":"Point","coordinates":[16.2789469,41.3122145]}}]}