{"type":"FeatureCollection","features":[{"type":"Feature","id":"way/1080060905","properties":{"addr:city":"Barletta","addr:street":"Via Amerigo Vespuci","amenity":"cafe","check_date":"2022-07-10","name":"Colibri'","operator":"Rizzitiello Giuseppe","outdoor_seating":"yes","payment:mastercard":"yes","payment:visa":"yes","wheelchair":"yes","id":"way/1080060905"},"geometry":{"type":"Polygon","coordinates":[[[16.2899851,41.319452],[16.2900445,41.3194069],[16.2901058,41.3194512],[16.2900455,41.3194948],[16.2899851,41.319452]]]}},{"type":"Feature","id":"node/615632951","properties":{"amenity":"cafe","name":"Golden Caffè","id":"node/615632951"},"geometry":{"type":"Point","coordinates":[16.2738769,41.3195655]}},{"type":"Feature","id":"node/615632958","properties":{"amenity":"cafe","name":"Caffè Letterario","id":"node/615632958"},"geometry":{"type":"Point","coordinates":[16.2826829,41.3183445]}},{"type":"Feature","id":"node/615632979","properties":{"amenity":"cafe","name":"Quo Vadis","outdoor_seating":"yes","id":"node/615632979"},"geometry":{"type":"Point","coordinates":[16.2836939,41.3210335]}},{"type":"Feature","id":"node/615632998","properties":{"addr:housenumber":"22","addr:street":"Piazzetta del Duomo","amenity":"cafe","check_date":"2022-07-29","name":"Shot","wheelchair":"limited","id":"node/615632998"},"geometry":{"type":"Point","coordinates":[16.2868666,41.3198209]}},{"type":"Feature","id":"node/615633002","properties":{"addr:housenumber":"43","addr:street":"Via del Duomo","amenity":"cafe","check_date":"2022-07-12","internet_access":"no","name":"Caffè Con Vista","outdoor_seating":"yes","payment:mastercard":"yes","payment:visa":"yes","wheelchair":"limited","id":"node/615633002"},"geometry":{"type":"Point","coordinates":[16.2865798,41.3207647]}},{"type":"Feature","id":"node/626149026","properties":{"amenity":"cafe","name":"Gran Caffè Erika","id":"node/626149026"},"geometry":{"type":"Point","coordinates":[16.2704869,41.3085284]}},{"type":"Feature","id":"node/626149027","properties":{"amenity":"cafe","name":"Angel Caffe","id":"node/626149027"},"geometry":{"type":"Point","coordinates":[16.2707472,41.3082127]}},{"type":"Feature","id":"node/626149036","properties":{"amenity":"cafe","id":"node/626149036"},"geometry":{"type":"Point","coordinates":[16.2711736,41.3085007]}},{"type":"Feature","id":"node/626149042","properties":{"amenity":"cafe","name":"Bar Atlanta 96","id":"node/626149042"},"geometry":{"type":"Point","coordinates":[16.2677513,41.3101011]}},{"type":"Feature","id":"node/626149057","properties":{"amenity":"cafe","name":"Bar Italia 90","id":"node/626149057"},"geometry":{"type":"Point","coordinates":[16.2670258,41.3107213]}},{"type":"Feature","id":"node/626149080","properties":{"amenity":"cafe","id":"node/626149080"},"geometry":{"type":"Point","coordinates":[16.2755848,41.3116096]}},{"type":"Feature","id":"node/630736128","properties":{"amenity":"cafe","name":"I Giardini","id":"node/630736128"},"geometry":{"type":"Point","coordinates":[16.2725968,41.3104128]}},{"type":"Feature","id":"node/632554407","properties":{"amenity":"cafe","name":"Bar l'Incontro","id":"node/632554407"},"geometry":{"type":"Point","coordinates":[16.2605248,41.3119257]}},{"type":"Feature","id":"node/632554409","properties":{"amenity":"cafe","name":"Bar da Boe","id":"node/632554409"},"geometry":{"type":"Point","coordinates":[16.2673932,41.3086359]}},{"type":"Feature","id":"node/633021860","properties":{"amenity":"cafe","name":"Caffe Insomnia","id":"node/633021860"},"geometry":{"type":"Point","coordinates":[16.2689025,41.3070803]}},{"type":"Feature","id":"node/633021900","properties":{"amenity":"cafe","name":"Caffetteria Elisir","id":"node/633021900"},"geometry":{"type":"Point","coordinates":[16.2662416,41.3107325]}},{"type":"Feature","id":"node/633021925","properties":{"amenity":"cafe","name":"Bar con Ghiaccio","id":"node/633021925"},"geometry":{"type":"Point","coordinates":[16.2655941,41.3123884]}},{"type":"Feature","id":"node/633021927","properties":{"amenity":"cafe","name":"Gran Caffè Al Mulinello","id":"node/633021927"},"geometry":{"type":"Point","coordinates":[16.2661008,41.31255]}},{"type":"Feature","id":"node/633021930","properties":{"amenity":"cafe","name":"Caffetteria Rionero","id":"node/633021930"},"geometry":{"type":"Point","coordinates":[16.2681848,41.311346]}},{"type":"Feature","id":"node/944702470","properties":{"amenity":"cafe","name":"Bar Jabena","id":"node/944702470"},"geometry":{"type":"Point","coordinates":[16.2643254,41.3076003]}},{"type":"Feature","id":"node/1360129563","properties":{"amenity":"cafe","id":"node/1360129563"},"geometry":{"type":"Point","coordinates":[16.2195959,41.2507822]}},{"type":"Feature","id":"node/1360129598","properties":{"amenity":"cafe","id":"node/1360129598"},"geometry":{"type":"Point","coordinates":[16.21947,41.2518076]}},{"type":"Feature","id":"node/1507496984","properties":{"amenity":"cafe","cuisine":"italian","name":"Sud Biliardi Revival","id":"node/1507496984"},"geometry":{"type":"Point","coordinates":[16.262063,41.3067037]}},{"type":"Feature","id":"node/4921314721","properties":{"addr:housenumber":"55","addr:street":"Piazza Castello","amenity":"cafe","check_date":"2022-07-20","name":"Groove Bar","name:de":"Groove Bar","id":"node/4921314721"},"geometry":{"type":"Point","coordinates":[16.286642,41.3211163]}},{"type":"Feature","id":"node/6249617951","properties":{"air_conditioning":"yes","amenity":"cafe","bar":"yes","check_date":"2022-07-20","indoor_seating":"yes","name":"Cafè Modà","opening_hours":"Mo-Sa 08:00-13:00,16:00-22:00","outdoor_seating":"yes","smoking":"no","id":"node/6249617951"},"geometry":{"type":"Point","coordinates":[16.2820136,41.3194929]}},{"type":"Feature","id":"node/8349646389","properties":{"addr:street":"Via Mariano Abignenti","amenity":"cafe","cuisine":"italian","name":"Nemesi","id":"node/8349646389"},"geometry":{"type":"Point","coordinates":[16.2861751,41.3212231]}},{"type":"Feature","id":"node/9189911307","properties":{"addr:city":"Barletta","addr:housenumber":"108","addr:postcode":"76121","addr:street":"Via Cavour","amenity":"cafe","check_date":"2022-07-12","cuisine":"coffee;breakfast;brunch","name":"Bar Castello","opening_hours":"24/7","outdoor_seating":"yes","phone":"+39 0883 531704","id":"node/9189911307"},"geometry":{"type":"Point","coordinates":[16.2879771,41.3188383]}},{"type":"Feature","id":"node/9189948958","properties":{"addr:city":"Barletta","addr:housenumber":"98","addr:postcode":"76121","addr:street":"Via Cavour","air_conditioning":"yes","amenity":"cafe","cuisine":"breakfast;coffee","name":"Le Muse","opening_hours":"24/7","outdoor_seating":"yes","phone":"+39 0883 888634","smoking":"no","id":"node/9189948958"},"geometry":{"type":"Point","coordinates":[16.2878129,41.3188708]}},{"type":"Feature","id":"node/9190022341","properties":{"addr:city":"Barletta","addr:housenumber":"151","addr:postcode":"76121","addr:street":"Via Ferdinando d'Aragona","addr:unit":"c/d","amenity":"cafe","cuisine":"danish;breakfast;beer","name":"Hygge Danish Bar","opening_hours":"Mo-Sa 07:00-22:00","outdoor_seating":"yes","website":"https://hygge-danish-bar.business.site/?utm_source=gmb&utm_medium=referral","id":"node/9190022341"},"geometry":{"type":"Point","coordinates":[16.2876076,41.3178698]}},{"type":"Feature","id":"node/9193439454","properties":{"addr:housenumber":"84, 86, 88","addr:street":"Via Cavour","amenity":"cafe","check_date":"2022-07-12","cuisine":"coffee;breakfast","name":"Bar Cavour","outdoor_seating":"yes","phone":"+39 0883 534673","id":"node/9193439454"},"geometry":{"type":"Point","coordinates":[16.2861673,41.3191883]}},{"type":"Feature","id":"node/9672075190","properties":{"addr:housenumber":"131","addr:street":"Corso Garibaldi","amenity":"bar","check_date":"2022-07-17","coffee":"yes","cuisine":"breakfast","indoor_seating":"yes","internet_access":"no","name":"Brooklyn café","opening_hours":"Mo-Su 07:00-22:00+","outdoor_seating":"yes","payment:credit_cards":"yes","payment:mastercard":"yes","payment:visa":"yes","phone":"+39 0883 171 4905","ref:vatin":"08583200723","smoking":"no","source":"survey","wheelchair":"limited","id":"node/9672075190"},"geometry":{"type":"Point","coordinates":[16.2834984,41.3200837]}},{"type":"Feature","id":"node/9869986531","properties":{"addr:housenumber":"81","addr:street":"Corso Vittorio Emanuele II","amenity":"cafe","check_date":"2022-07-20","cuisine":"coffee_shop","name":"Opera caffè","id":"node/9869986531"},"geometry":{"type":"Point","coordinates":[16.2793565,41.319981]}},{"type":"Feature","id":"node/9883486195","properties":{"addr:housenumber":"18","addr:street":"Via Cavour","check_date":"2022-07-12","coffee":"yes","email":"aldodiella@virgilio.it","internet_access":"no","name":"Genny","opening_hours":"Tu-Sa 06:30-13:30,15:30-21:00; Su 06:30-14:30,17:00-21:00","payment:credit_cards":"yes","payment:mastercard":"yes","payment:visa":"yes","phone":"+39 0883 348063;+39 320 847 6082;+39 320 883 6157","shop":"pastry","website":"https://www.pasticceriagenny.it/","wheelchair":"no","id":"node/9883486195"},"geometry":{"type":"Point","coordinates":[16.2840491,41.3195693]}},{"type":"Feature","id":"node/9885671000","properties":{"amenity":"cafe","email":"daniele@pascucci.it","name":"Pascucci","phone":"+39 0541 978524","website":"http://www.pascucci.it","id":"node/9885671000"},"geometry":{"type":"Point","coordinates":[16.294261,41.3185436]}},{"type":"Feature","id":"node/9885729064","properties":{"amenity":"cafe","email":"daniele@pascucci.it","name":"Pascucci","phone":"+39 0883 551913","website":"http://www.pascucci.it","id":"node/9885729064"},"geometry":{"type":"Point","coordinates":[16.2968476,41.2462782]}},{"type":"Feature","id":"node/9900202103","properties":{"addr:housenumber":"20, 22","addr:street":"Corso Vittorio Emanuele","amenity":"cafe","check_date":"2022-07-20","internet_access":"no","name":"Cafè Eraclio","outdoor_seating":"yes","payment:credit_cards":"yes","payment:mastercard":"yes","payment:visa":"yes","wheelchair":"limited","id":"node/9900202103"},"geometry":{"type":"Point","coordinates":[16.2816518,41.3193929]}},{"type":"Feature","id":"node/9900238708","properties":{"addr:housenumber":"46, 48","addr:street":"Corso Vittorio Emanuele","amenity":"bar","check_date":"2022-07-20","coffee":"yes","internet_access":"no","name":"Kofler","opening_hours":"06:00-13:00,15:00-21:30","payment:credit_cards":"yes","payment:mastercard":"yes","payment:visa":"yes","wheelchair":"no","id":"node/9900238708"},"geometry":{"type":"Point","coordinates":[16.2809822,41.3196361]}}]}