{"type":"FeatureCollection","features":[{"type":"Feature","id":"way/68706890","properties":{"name":"Itaca","tourism":"hotel","id":"way/68706890"},"geometry":{"type":"Polygon","coordinates":[[[16.2931867,41.3212587],[16.292947,41.320664],[16.2931986,41.3202477],[16.2934676,41.3201987],[16.2935804,41.3204615],[16.2937123,41.3207448],[16.2938379,41.3207135],[16.2939923,41.3210645],[16.2934628,41.3211864],[16.2931867,41.3212587]]]}},{"type":"Feature","id":"way/407433089","properties":{"amenity":"restaurant","building":"yes","name":"La Terrazza","tourism":"hotel","id":"way/407433089"},"geometry":{"type":"Polygon","coordinates":[[[16.2997091,41.3195421],[16.2994699,41.3196095],[16.2994004,41.3194703],[16.299303,41.3192755],[16.2994002,41.3192481],[16.299394,41.3192356],[16.2993882,41.3192241],[16.2993096,41.3192462],[16.2992183,41.3190634],[16.2993628,41.3190227],[16.2993905,41.3190781],[16.2995121,41.3190439],[16.2996053,41.3190176],[16.2996426,41.3190924],[16.2998639,41.31903],[16.2998404,41.3189831],[16.2999438,41.3189539],[16.2999299,41.3189262],[16.2999933,41.3189083],[16.30001,41.3189418],[16.2999906,41.3189473],[16.2999999,41.3189659],[16.3000182,41.3189607],[16.300058,41.3190405],[16.30004,41.3190455],[16.3000438,41.3190532],[16.2999368,41.3190834],[16.2999654,41.3191408],[16.2999777,41.3191653],[16.2999378,41.3191766],[16.2999486,41.3191984],[16.2999077,41.3192099],[16.2998967,41.3191879],[16.2997945,41.3192167],[16.2998059,41.3192395],[16.2997564,41.3192534],[16.2997462,41.319233],[16.2996385,41.3192634],[16.2996714,41.3193292],[16.2996112,41.3193461],[16.2997091,41.3195421]]]}},{"type":"Feature","id":"node/2962851873","properties":{"name":"Hotel Milano","tourism":"hotel","id":"node/2962851873"},"geometry":{"type":"Point","coordinates":[16.2796682,41.3180162]}},{"type":"Feature","id":"node/5256161351","properties":{"name":"Ottagono","tourism":"hotel","id":"node/5256161351"},"geometry":{"type":"Point","coordinates":[16.2930011,41.2439949]}},{"type":"Feature","id":"node/9672137257","properties":{"addr:housenumber":"10","addr:street":"Via Marina","check_date":"2022-07-29","description":"Bed n Breakfast","name":"Casamare","payment:credit_cards":"yes","payment:mastercard":"yes","payment:visa":"yes","phone":"+39 331 600 7605; +39 320 069 8882","reservation":"yes","smoking":"no","tourism":"hotel","wheelchair":"limited","id":"node/9672137257"},"geometry":{"type":"Point","coordinates":[16.2840229,41.3216587]}},{"type":"Feature","id":"node/9871879979","properties":{"addr:housenumber":"1","addr:street":"Via del Duomo","check_date":"2022-07-07","internet_access":"wlan","internet_access:fee":"no","name":"La disfida di barletta","phone":"+39 327 545 8977; +39 388 444 0895","tourism":"hotel","website":"https://www.ladisfidadibarletta.it/","id":"node/9871879979"},"geometry":{"type":"Point","coordinates":[16.2847175,41.3208232]}},{"type":"Feature","id":"node/9871909928","properties":{"addr:housenumber":"5","addr:street":"Via del Duomo","check_date":"2022-07-07","email":"info@vinslounge.it","internet_access":"wlan","internet_access:fee":"no","name":"Vins Lounge","phone":"+39 0883 390788; +39 347 591 6026","tourism":"hotel","website":"https://www.vinslounge.it/","id":"node/9871909928"},"geometry":{"type":"Point","coordinates":[16.2848057,41.320823]}}]}