{"type":"FeatureCollection","features":[{"type":"Feature","id":"way/407431356","properties":{"amenity":"ice_cream","building":"yes","check_date":"2022-07-29","internet_access":"no","name":"Bar Nicolino","payment:credit_cards":"yes","payment:mastercard":"yes","payment:visa":"yes","wheelchair":"yes","id":"way/407431356"},"geometry":{"type":"Polygon","coordinates":[[[16.2791611,41.317297],[16.2790854,41.3173888],[16.2790185,41.317359],[16.2790955,41.3172662],[16.2791611,41.317297]]]}},{"type":"Feature","id":"node/9207440151","properties":{"addr:housenumber":"228","addr:street":"Corso Giuseppe Garibaldi","amenity":"ice_cream","check_date":"2022-07-11","cuisine":"ice_cream;coffee;breakfast","name":"Gelateria Bonelli","outdoor_seating":"yes","id":"node/9207440151"},"geometry":{"type":"Point","coordinates":[16.2844212,41.3205032]}},{"type":"Feature","id":"node/9676933832","properties":{"addr:housenumber":"21","addr:street":"Corso Vittorio Emanuele","amenity":"ice_cream","check_date":"2022-07-20","name":"Yogurtlandia","outdoor_seating":"no","id":"node/9676933832"},"geometry":{"type":"Point","coordinates":[16.2806381,41.3194847]}},{"type":"Feature","id":"node/9676940829","properties":{"addr:housenumber":"1","addr:street":"Corso Vittorio Emanuele","amenity":"ice_cream","check_date":"2022-07-20","description":"Artisanal recipes from 1972","name":"Gelateria Sveva","id":"node/9676940829"},"geometry":{"type":"Point","coordinates":[16.2811033,41.3193225]}},{"type":"Feature","id":"node/9676962879","properties":{"addr:housenumber":"37","addr:street":"Corso Vittorio Emanuele","amenity":"ice_cream","check_date":"2022-07-20","name":"Yogo","id":"node/9676962879"},"geometry":{"type":"Point","coordinates":[16.2803529,41.3195778]}},{"type":"Feature","id":"node/9878704858","properties":{"amenity":"ice_cream","check_date":"2022-07-10","internet_access":"no","name":"L'avamposto","wheelchair":"yes","id":"node/9878704858"},"geometry":{"type":"Point","coordinates":[16.2869794,41.320436]}},{"type":"Feature","id":"node/9878704859","properties":{"addr:housenumber":"34","addr:street":"Via Prospero Colonna","amenity":"ice_cream","check_date":"2022-07-10","internet_access":"no","name":"Mont Blanc","payment:mastercard":"yes","payment:visa":"yes","wheelchair":"yes","id":"node/9878704859"},"geometry":{"type":"Point","coordinates":[16.2862412,41.320215]}},{"type":"Feature","id":"node/9900202105","properties":{"addr:housenumber":"26","addr:street":"Corso Vittorio Emanuele","amenity":"ice_cream","check_date":"2022-07-20","internet_access":"no","name":"Gelateria del Corso","opening_hours":"Mo-Fr 16:00-02:00; Sa 16:00-04:00","payment:credit_cards":"yes","payment:mastercard":"yes","payment:visa":"yes","wheelchair":"no","id":"node/9900202105"},"geometry":{"type":"Point","coordinates":[16.2814877,41.319455]}},{"type":"Feature","id":"node/9909366230","properties":{"addr:housenumber":"41","addr:street":"Via Giuseppe de Nittis","amenity":"ice_cream","check_date":"2022-07-25","internet_access":"no","name":"Tre Galletti","outdoor_seating":"yes","payment:mastercard":"yes","payment:visa":"yes","wheelchair":"limited","id":"node/9909366230"},"geometry":{"type":"Point","coordinates":[16.2796648,41.3166774]}},{"type":"Feature","id":"node/9942192923","properties":{"addr:housenumber":"10, 8","addr:street":"Via Giuseppe Gabbiani","amenity":"ice_cream","check_date":"2022-08-09","internet_access":"no","name":"Igloo","payment:mastercard":"yes","payment:visa":"yes","wheelchair":"limited","id":"node/9942192923"},"geometry":{"type":"Point","coordinates":[16.2808117,41.3170185]}}]}