{"type":"FeatureCollection","features":[{"type":"Feature","id":"node/626149031","properties":{"amenity":"pharmacy","dispensing":"yes","name":"Memoli","id":"node/626149031"},"geometry":{"type":"Point","coordinates":[16.2713594,41.3077697]}},{"type":"Feature","id":"node/626149045","properties":{"amenity":"pharmacy","name":"Attanasio","id":"node/626149045"},"geometry":{"type":"Point","coordinates":[16.2676571,41.3101786]}},{"type":"Feature","id":"node/626149082","properties":{"amenity":"pharmacy","healthcare":"pharmacy","id":"node/626149082"},"geometry":{"type":"Point","coordinates":[16.2758819,41.3121744]}},{"type":"Feature","id":"node/634978870","properties":{"amenity":"pharmacy","healthcare":"pharmacy","name":"Procacci","id":"node/634978870"},"geometry":{"type":"Point","coordinates":[16.2841513,41.3099453]}},{"type":"Feature","id":"node/9116699084","properties":{"addr:city":"Barletta","addr:housenumber":"22","addr:postcode":"76121","addr:street":"Via Alfredo Casardi","amenity":"pharmacy","dispensing":"yes","healthcare":"pharmacy","name":"Farmacia Posi dott. Fabio Rocco Posi","opening_hours":"Mo-Fr 08:30-13:00,17:00-20:30","operator":"Farmacia Posi di Posi Fabio Rocco & C. S.A.S.","ref:msal":"12602","ref:vatin":"IT08502950721","id":"node/9116699084"},"geometry":{"type":"Point","coordinates":[16.2857228,41.3174126]}},{"type":"Feature","id":"node/9136048405","properties":{"addr:city":"Barletta","addr:housenumber":"6/A","addr:postcode":"76121","addr:street":"Via Andria","amenity":"pharmacy","dispensing":"yes","healthcare":"pharmacy","name":"Farmacia del Cambio","opening_hours":"Mo-Fr 08:30–14/16–20:30","id":"node/9136048405"},"geometry":{"type":"Point","coordinates":[16.2887023,41.3175269]}},{"type":"Feature","id":"node/9136099082","properties":{"addr:city":"Barletta","addr:housenumber":"40","addr:postcode":"76121","addr:street":"Via Isidoro Alvisi","amenity":"pharmacy","dispensing":"yes","healthcare":"pharmacy","name":"Farmacia Cannone Dr. Domenico Pio","opening_hours":"Mo-Su 08:15-21:00","id":"node/9136099082"},"geometry":{"type":"Point","coordinates":[16.2832368,41.3169517]}},{"type":"Feature","id":"node/9677807312","properties":{"addr:housenumber":"136","addr:street":"Corso Vittorio Emanuele II","amenity":"pharmacy","healthcare":"pharmacy","name":"Dott. A. Florio","opening_hours":"Mo-Fr 08:30-13:00, 17:00-20:30","id":"node/9677807312"},"geometry":{"type":"Point","coordinates":[16.2785463,41.3202163]}},{"type":"Feature","id":"node/9677845802","properties":{"addr:housenumber":"226","addr:street":"Corso Vittorio Emanuele II","amenity":"pharmacy","healthcare":"pharmacy","name":"Dott. Lombardi F.","opening_hours":"Mo-Fr 08:30-13:00, 17:00-20:30; Sa 08:30-13:00","id":"node/9677845802"},"geometry":{"type":"Point","coordinates":[16.2760947,41.3203154]}},{"type":"Feature","id":"node/9900238715","properties":{"addr:housenumber":"19, 21, 23","addr:street":"Via del Municipio","amenity":"pharmacy","check_date":"2022-07-20","healthcare":"pharmacy","internet_access":"no","name":"Farmacia Mastromatteo","payment:credit_cards":"yes","payment:mastercard":"yes","payment:visa":"yes","wheelchair":"limited","id":"node/9900238715"},"geometry":{"type":"Point","coordinates":[16.2805702,41.3199887]}},{"type":"Feature","id":"node/9909366232","properties":{"addr:housenumber":"47","addr:street":"Via Giuseppe de Nittis","amenity":"pharmacy","check_date":"2022-07-25","healthcare":"pharmacy","name":"Dottor M. Giannone","id":"node/9909366232"},"geometry":{"type":"Point","coordinates":[16.2794725,41.3165929]}}]}