{"type":"FeatureCollection","features":[{"type":"Feature","id":"node/615632965","properties":{"amenity":"restaurant","cuisine":"pizza","name":"Re Art√∫","id":"node/615632965"},"geometry":{"type":"Point","coordinates":[16.2824213,41.3204838]}},{"type":"Feature","id":"node/4006138148","properties":{"amenity":"restaurant","cuisine":"pizza","id":"node/4006138148"},"geometry":{"type":"Point","coordinates":[16.2752388,41.3190636]}},{"type":"Feature","id":"node/4145091264","properties":{"addr:housenumber":"9","addr:street":"Via Marina","amenity":"restaurant","check_date":"2022-07-29","cuisine":"pizza","internet_access":"no","name":"Il Convito delle Muse","payment:credit_cards":"yes","payment:mastercard":"yes","payment:visa":"yes","wheelchair":"no","id":"node/4145091264"},"geometry":{"type":"Point","coordinates":[16.2837841,41.3217105]}},{"type":"Feature","id":"node/4799180042","properties":{"amenity":"restaurant","cuisine":"pizza","name":"Pizzeria Pulcinella","id":"node/4799180042"},"geometry":{"type":"Point","coordinates":[16.2731973,41.311302]}},{"type":"Feature","id":"node/5520426842","properties":{"amenity":"restaurant","cuisine":"pizza","name":"Pizzeria Il Pizzone","id":"node/5520426842"},"geometry":{"type":"Point","coordinates":[16.2930864,41.321532]}},{"type":"Feature","id":"node/5520430040","properties":{"cuisine":"pizza","disused:amenity":"restaurant","name":"Pizzeria La Rotonda","id":"node/5520430040"},"geometry":{"type":"Point","coordinates":[16.2922417,41.3217303]}},{"type":"Feature","id":"node/6249712885","properties":{"amenity":"restaurant","cuisine":"pizza","name":"Pizzeria by La Bettola","id":"node/6249712885"},"geometry":{"type":"Point","coordinates":[16.2765187,41.3190091]}},{"type":"Feature","id":"node/9189989523","properties":{"addr:city":"Barletta","addr:housenumber":"9","addr:postcode":"76121","addr:street":"Via III Novembre","amenity":"restaurant","cuisine":"pizza","name":"Il Rosticciere - Forno A Legna","opening_hours":"Mo-Su 19:00-24:00","phone":"+393496410609","smoking":"no","id":"node/9189989523"},"geometry":{"type":"Point","coordinates":[16.2877405,41.3187379]}},{"type":"Feature","id":"node/9869955888","properties":{"addr:housenumber":"3","addr:street":"Corso Vittorio Emanuele","amenity":"fast_food","check_date":"2022-07-20","cuisine":"pizza","name":"Pizzeria Santa Maria","id":"node/9869955888"},"geometry":{"type":"Point","coordinates":[16.2809944,41.3193627]}},{"type":"Feature","id":"node/9870041026","properties":{"addr:housenumber":"155","addr:street":"Corso Giuseppe Garibaldi","amenity":"restaurant","check_date":"2022-07-06","cuisine":"pizza","name":"Jolly blu","id":"node/9870041026"},"geometry":{"type":"Point","coordinates":[16.2842787,41.3206287]}},{"type":"Feature","id":"node/9883610876","properties":{"addr:housenumber":"1","addr:street":"Via San Giorgio","amenity":"restaurant","check_date":"2022-07-12","cuisine":"pizza","name":"Hipporosso","id":"node/9883610876"},"geometry":{"type":"Point","coordinates":[16.2846587,41.3206976]}},{"type":"Feature","id":"node/9900143349","properties":{"addr:housenumber":"46, 46a","addr:street":"Via Nazareth","amenity":"restaurant","check_date":"2022-07-20","cuisine":"pizza","internet_access":"no","name":"Portento","payment:credit_cards":"yes","payment:mastercard":"yes","payment:visa":"yes","wheelchair":"limited","id":"node/9900143349"},"geometry":{"type":"Point","coordinates":[16.2824893,41.3201803]}},{"type":"Feature","id":"node/9919658885","properties":{"addr:housenumber":"25","addr:street":"Via Albamonte","amenity":"restaurant","check_date":"2022-07-29","cuisine":"pizza","internet_access":"no","name":"Crazy Pizza","wheelchair":"no","id":"node/9919658885"},"geometry":{"type":"Point","coordinates":[16.2866762,41.3200252]}},{"type":"Feature","id":"node/9938210753","properties":{"addr:street":"Via San Samuele","amenity":"restaurant","cuisine":"pizza","name":"Zio Tom","id":"node/9938210753"},"geometry":{"type":"Point","coordinates":[16.2746178,41.3221822]}}]}