{"type":"FeatureCollection","features":[{"type":"Feature","id":"node/615632953","properties":{"amenity":"pub","name":"San Sebastiano","id":"node/615632953"},"geometry":{"type":"Point","coordinates":[16.2807149,41.3200621]}},{"type":"Feature","id":"node/615632960","properties":{"amenity":"pub","name":"Country","id":"node/615632960"},"geometry":{"type":"Point","coordinates":[16.2825004,41.3207199]}},{"type":"Feature","id":"node/615632967","properties":{"addr:city":"Barletta","addr:housenumber":"137","addr:postcode":"76121","addr:street":"Corso Giuseppe Garibaldi","air_conditioning":"yes","amenity":"pub","check_date":"2022-07-06","cuisine":"pizza;italian","description":"PizzOsteria","diet:meat":"yes","diet:mediterranean":"yes","name":"I Bucanieri","phone":"+39 320 079 5732","source":"survey","website":"https://www.facebook.com/ibucanieri","wheelchair":"limited","id":"node/615632967"},"geometry":{"type":"Point","coordinates":[16.283664,41.3202194]}},{"type":"Feature","id":"node/615632974","properties":{"amenity":"pub","brewery":"various","check_date":"2022-07-06","cuisine":"Irish;italian;meat;pizza","diet:gluten_free":"yes","diet:meat":"yes","email":"info@saint-patrick.it","internet_access":"wlan","internet_access:fee":"no","name":"Saint Patrick","outdoor_seating":"yes","payment:coins":"yes","payment:credit_cards":"yes","phone":"+39 0883 347157","smoking":"no","website":"https://www.saint-patrick.it/","wheelchair":"limited","id":"node/615632974"},"geometry":{"type":"Point","coordinates":[16.283592,41.3209253]}},{"type":"Feature","id":"node/615632983","properties":{"addr:housenumber":"3","addr:street":"Via Marina","amenity":"pub","check_date":"2022-07-29","internet_access":"wlan","internet_access:fee":"no","name":"Exploit","payment:credit_cards":"yes","payment:mastercard":"yes","payment:visa":"yes","wheelchair":"limited","id":"node/615632983"},"geometry":{"type":"Point","coordinates":[16.2833511,41.321702]}},{"type":"Feature","id":"node/632554403","properties":{"amenity":"pub","name":"Il Rosticciere","id":"node/632554403"},"geometry":{"type":"Point","coordinates":[16.2791232,41.3052417]}},{"type":"Feature","id":"node/1807987421","properties":{"amenity":"pub","name":"Il Tavolaccio","id":"node/1807987421"},"geometry":{"type":"Point","coordinates":[16.2738556,41.3058047]}},{"type":"Feature","id":"node/4012443016","properties":{"amenity":"pub","name":"Friedrich II","outdoor_seating":"yes","id":"node/4012443016"},"geometry":{"type":"Point","coordinates":[16.2837944,41.3212401]}},{"type":"Feature","id":"node/6249545205","properties":{"addr:housenumber":"7","addr:street":"Piazza pescheria","amenity":"pub","bar":"yes","brewery":"yes;various","check_date":"2022-07-10","cuisine":"regional","name":"Cappero","outdoor_seating":"yes","payment:cash":"yes","payment:coins":"yes","payment:mastercard":"yes","payment:visa":"yes","smoking":"no","wheelchair":"no","id":"node/6249545205"},"geometry":{"type":"Point","coordinates":[16.2840025,41.3212411]}},{"type":"Feature","id":"node/9677074047","properties":{"addr:housenumber":"5","addr:street":"Piazza pescheria","amenity":"pub","name":"Clarence","id":"node/9677074047"},"geometry":{"type":"Point","coordinates":[16.283944,41.3214539]}},{"type":"Feature","id":"node/9870041031","properties":{"addr:housenumber":"133","addr:street":"Corso Giuseppe Garibaldi","amenity":"pub","brewery":"yes;various","check_date":"2022-08-02","diet:meat":"yes","internet_access":"no","name":"Saint Patrick Beer Shop","outdoor_seating":"yes","payment:mastercard":"yes","payment:visa":"yes","smoking":"no","theme":"irish","wheelchair":"limited","id":"node/9870041031"},"geometry":{"type":"Point","coordinates":[16.2835707,41.3201325]}},{"type":"Feature","id":"node/9878724503","properties":{"addr:housenumber":"39, 40","addr:street":"Via del Duomo","amenity":"pub","brewery":"yes","check_date":"2022-07-10","internet_access":"no","name":"Sulemani","outdoor_seating":"yes","payment:mastercard":"yes","payment:visa":"yes","smoking":"no","wheelchair":"yes","id":"node/9878724503"},"geometry":{"type":"Point","coordinates":[16.2863275,41.3207829]}},{"type":"Feature","id":"node/9899440616","properties":{"addr:housenumber":"3","addr:street":"Via Mura San Cataldo","amenity":"pub","brewery":"yes","check_date":"2022-07-20","internet_access":"no","name":"Don Angeluzzo","outdoor_seating":"yes","payment:mastercard":"yes","payment:visa":"yes","smoking":"no","wheelchair":"no","id":"node/9899440616"},"geometry":{"type":"Point","coordinates":[16.2864613,41.3213078]}},{"type":"Feature","id":"node/9899496417","properties":{"addr:housenumber":"1","addr:street":"Via Mura San Cataldo","amenity":"pub","brewery":"yes","check_date":"2022-07-20","cuisine":"italian","diet:mediterranean":"yes","internet_access":"no","name":"Cafe Real","outdoor_seating":"yes","payment:mastercard":"yes","payment:visa":"yes","wheelchair":"no","id":"node/9899496417"},"geometry":{"type":"Point","coordinates":[16.2865863,41.3212477]}},{"type":"Feature","id":"node/9899496420","properties":{"addr:housenumber":"52","addr:street":"Piazza Castello","amenity":"pub","brewery":"yes","check_date":"2022-07-20","internet_access":"no","name":"London House","outdoor_seating":"yes","payment:mastercard":"yes","payment:visa":"yes","smoking":"no","wheelchair":"no","id":"node/9899496420"},"geometry":{"type":"Point","coordinates":[16.2866463,41.321037]}},{"type":"Feature","id":"node/9899529387","properties":{"addr:housenumber":"27","addr:street":"Via Baldacchini","amenity":"pub","check_date":"2022-07-20","name":"Dandy","id":"node/9899529387"},"geometry":{"type":"Point","coordinates":[16.2828679,41.3202685]}}]}