{"type":"FeatureCollection","features":[{"type":"Feature","id":"way/407429615","properties":{"amenity":"restaurant","building":"yes","name":"Lido Ginevra","id":"way/407429615"},"geometry":{"type":"Polygon","coordinates":[[[16.2809967,41.3234579],[16.2809883,41.323507],[16.2807499,41.3234839],[16.2806837,41.3234776],[16.2806893,41.3234434],[16.2806929,41.3234217],[16.2807162,41.3232788],[16.2807465,41.3232812],[16.2807519,41.3232524],[16.2807606,41.3232065],[16.280956,41.3232241],[16.2809467,41.323299],[16.281126,41.3233187],[16.2811152,41.3233769],[16.2810554,41.3233711],[16.2810124,41.3233669],[16.2810084,41.3233901],[16.2809967,41.3234579]]]}},{"type":"Feature","id":"way/407429940","properties":{"amenity":"restaurant","building":"yes","check_date":"2022-07-12","name":"Bonelli D'amare","id":"way/407429940"},"geometry":{"type":"Polygon","coordinates":[[[16.279385,41.3235474],[16.2793859,41.3235548],[16.2792813,41.3235639],[16.2792807,41.3235562],[16.2792662,41.3235632],[16.2792504,41.3235557],[16.2792508,41.3235455],[16.2792625,41.3235353],[16.2792773,41.3235356],[16.2792754,41.3235072],[16.2793043,41.3235051],[16.2792742,41.3233154],[16.2795145,41.3232938],[16.2795186,41.3233222],[16.2795204,41.3233348],[16.2795244,41.3233629],[16.2795255,41.3233702],[16.279504,41.3233723],[16.2795207,41.3234965],[16.2794048,41.3235082],[16.2793801,41.3235107],[16.279385,41.3235474]]]}},{"type":"Feature","id":"way/407429959","properties":{"addr:city":"Barletta","addr:housenumber":"84","addr:street":"Viale Regina Elena","amenity":"restaurant","building":"yes","name":"Il Brigantino 2","website":"http://brigantino.it/","id":"way/407429959"},"geometry":{"type":"Polygon","coordinates":[[[16.2960059,41.320599],[16.295762,41.3206583],[16.2956944,41.3204797],[16.2957433,41.3204655],[16.2956722,41.3202901],[16.2956304,41.3203022],[16.2956016,41.3202332],[16.2956871,41.3202108],[16.2956979,41.3202312],[16.2961087,41.3201343],[16.2961609,41.3202605],[16.2962184,41.3202482],[16.2962616,41.3203535],[16.29617,41.3203725],[16.2962196,41.320507],[16.2960396,41.32055],[16.2960342,41.320535],[16.2959844,41.3205473],[16.2960059,41.320599]]]}},{"type":"Feature","id":"way/407433089","properties":{"amenity":"restaurant","building":"yes","name":"La Terrazza","tourism":"hotel","id":"way/407433089"},"geometry":{"type":"Polygon","coordinates":[[[16.2997091,41.3195421],[16.2994699,41.3196095],[16.2994004,41.3194703],[16.299303,41.3192755],[16.2994002,41.3192481],[16.299394,41.3192356],[16.2993882,41.3192241],[16.2993096,41.3192462],[16.2992183,41.3190634],[16.2993628,41.3190227],[16.2993905,41.3190781],[16.2995121,41.3190439],[16.2996053,41.3190176],[16.2996426,41.3190924],[16.2998639,41.31903],[16.2998404,41.3189831],[16.2999438,41.3189539],[16.2999299,41.3189262],[16.2999933,41.3189083],[16.30001,41.3189418],[16.2999906,41.3189473],[16.2999999,41.3189659],[16.3000182,41.3189607],[16.300058,41.3190405],[16.30004,41.3190455],[16.3000438,41.3190532],[16.2999368,41.3190834],[16.2999654,41.3191408],[16.2999777,41.3191653],[16.2999378,41.3191766],[16.2999486,41.3191984],[16.2999077,41.3192099],[16.2998967,41.3191879],[16.2997945,41.3192167],[16.2998059,41.3192395],[16.2997564,41.3192534],[16.2997462,41.319233],[16.2996385,41.3192634],[16.2996714,41.3193292],[16.2996112,41.3193461],[16.2997091,41.3195421]]]}},{"type":"Feature","id":"node/615632955","properties":{"amenity":"restaurant","name":"La Buca dei Tredici","id":"node/615632955"},"geometry":{"type":"Point","coordinates":[16.2810992,41.3208439]}},{"type":"Feature","id":"node/615632957","properties":{"amenity":"restaurant","name":"il Valentino","website":"valentino.com","id":"node/615632957"},"geometry":{"type":"Point","coordinates":[16.2797392,41.3210755]}},{"type":"Feature","id":"node/615632964","properties":{"amenity":"restaurant","name":"Osteria","id":"node/615632964"},"geometry":{"type":"Point","coordinates":[16.2825368,41.3208102]}},{"type":"Feature","id":"node/615632965","properties":{"amenity":"restaurant","cuisine":"pizza","name":"Re Artú","id":"node/615632965"},"geometry":{"type":"Point","coordinates":[16.2824213,41.3204838]}},{"type":"Feature","id":"node/615632968","properties":{"addr:housenumber":"30","addr:street":"Via Baldacchini","amenity":"restaurant","check_date":"2022-07-20","indoor_seating":"yes","internet_access":"no","name":"Il Posticino","opening_hours:signed":"no","outdoor_seating":"yes","payment:credit_cards":"yes","payment:mastercard":"yes","payment:visa":"yes","wheelchair":"no","id":"node/615632968"},"geometry":{"type":"Point","coordinates":[16.2832426,41.3206824]}},{"type":"Feature","id":"node/615632970","properties":{"addr:housenumber":"47, 49, 51","addr:street":"Via Cialdini","amenity":"restaurant","check_date":"2022-07-06","cuisine":"pizza;italian;regional","diet:mediterranean":"yes","diet:vegetarian":"yes","internet_access":"no","name":"Al Pomodorino","payment:mastercard":"yes","payment:visa":"yes","wheelchair":"no","id":"node/615632970"},"geometry":{"type":"Point","coordinates":[16.2823694,41.321115]}},{"type":"Feature","id":"node/615632980","properties":{"addr:housenumber":"21","addr:street":"Via Cialdini","amenity":"restaurant","check_date":"2022-07-06","cuisine":"fish","diet:fish":"yes","diet:gluten_free":"yes","diet:mediterranean":"yes","diet:non-vegetarian":"yes","diet:pescetarian":"yes","internet_access":"no","name":"Veleno, Osteria del mare","payment:mastercard":"yes","payment:visa":"yes","wheelchair":"limited","id":"node/615632980"},"geometry":{"type":"Point","coordinates":[16.2834385,41.3209628]}},{"type":"Feature","id":"node/615632988","properties":{"addr:housenumber":"27, 29","addr:street":"Via San Giorgio","air_conditioning":"yes","amenity":"restaurant","brewery":"yes;various","check_date":"2022-07-20","cuisine":"pizza;italian","diet:meat":"yes","diet:mediterranean":"yes","diet:vegetarian":"yes","name":"San Giorgio","payment:credit_cards":"yes","payment:mastercard":"yes","payment:visa":"yes","reservation":"yes","smoking":"no","takeaway":"yes","id":"node/615632988"},"geometry":{"type":"Point","coordinates":[16.2848439,41.3201191]}},{"type":"Feature","id":"node/615632991","properties":{"addr:housenumber":"17","addr:street":"Via del Duomo","amenity":"restaurant","check_date":"2022-07-10","disused:amenity":"pub","internet_access":"no","name":"Al tettuccio","payment:mastercard":"yes","payment:visa":"yes","wheelchair":"no","id":"node/615632991"},"geometry":{"type":"Point","coordinates":[16.2849771,41.3208228]}},{"type":"Feature","id":"node/615632993","properties":{"addr:housenumber":"38","addr:street":"Via del Duomo","amenity":"restaurant","check_date":"2022-07-10","cuisine":"pizza;italian;regional","diet:dairy_free":"yes","diet:meat":"yes","diet:mediterranean":"yes","diet:vegetarian":"yes","internet_access":"no","name":"Santa Croce","payment:mastercard":"yes","payment:visa":"yes","wheelchair":"no","id":"node/615632993"},"geometry":{"type":"Point","coordinates":[16.2857345,41.3206861]}},{"type":"Feature","id":"node/616200023","properties":{"amenity":"restaurant","check_date":"2022-07-10","cuisine":"pizza;italian;regional","diet:dairy_free":"yes","diet:healthy":"yes","diet:local":"yes","diet:meat":"yes","diet:omnivore":"yes","diet:vegetarian":"yes","name":"Fata Morgana","payment:mastercard":"yes","payment:visa":"yes","wheelchair":"no","id":"node/616200023"},"geometry":{"type":"Point","coordinates":[16.2854521,41.3207236]}},{"type":"Feature","id":"node/4006138148","properties":{"amenity":"restaurant","cuisine":"pizza","id":"node/4006138148"},"geometry":{"type":"Point","coordinates":[16.2752388,41.3190636]}},{"type":"Feature","id":"node/4094745621","properties":{"addr:floor":"G, 1","addr:housenumber":"29","addr:street":"Via del Duomo","amenity":"restaurant","check_date":"2022-07-07","cuisine":"italian;regional","diet:local":"yes","diet:mediterranean":"yes","diet:pescetarian":"yes","level":"0","name":"Al Duomo","name:it":"Osteria al Duomo","payment:mastercard":"yes","payment:visa":"yes","wheelchair":"no","id":"node/4094745621"},"geometry":{"type":"Point","coordinates":[16.2855499,41.3207829]}},{"type":"Feature","id":"node/4145091264","properties":{"addr:housenumber":"9","addr:street":"Via Marina","amenity":"restaurant","check_date":"2022-07-29","cuisine":"pizza","internet_access":"no","name":"Il Convito delle Muse","payment:credit_cards":"yes","payment:mastercard":"yes","payment:visa":"yes","wheelchair":"no","id":"node/4145091264"},"geometry":{"type":"Point","coordinates":[16.2837841,41.3217105]}},{"type":"Feature","id":"node/4799180042","properties":{"amenity":"restaurant","cuisine":"pizza","name":"Pizzeria Pulcinella","id":"node/4799180042"},"geometry":{"type":"Point","coordinates":[16.2731973,41.311302]}},{"type":"Feature","id":"node/5520366386","properties":{"addr:housenumber":"60","addr:street":"Via della Misericordia","amenity":"restaurant","name":"KiAma Sushi","id":"node/5520366386"},"geometry":{"type":"Point","coordinates":[16.2985811,41.3175]}},{"type":"Feature","id":"node/5520396500","properties":{"amenity":"restaurant","name":"Escopocodisera Ristorante","website":"escopocodiseraristorante.it","id":"node/5520396500"},"geometry":{"type":"Point","coordinates":[16.2807208,41.3202549]}},{"type":"Feature","id":"node/5520396522","properties":{"amenity":"restaurant","name":"Vecchio Forno","id":"node/5520396522"},"geometry":{"type":"Point","coordinates":[16.281511,41.3213121]}},{"type":"Feature","id":"node/5520396523","properties":{"amenity":"restaurant","name":"Ristorante 95","id":"node/5520396523"},"geometry":{"type":"Point","coordinates":[16.2819611,41.3208735]}},{"type":"Feature","id":"node/5520426842","properties":{"amenity":"restaurant","cuisine":"pizza","name":"Pizzeria Il Pizzone","id":"node/5520426842"},"geometry":{"type":"Point","coordinates":[16.2930864,41.321532]}},{"type":"Feature","id":"node/5520439655","properties":{"amenity":"restaurant","name":"La Brasserie","id":"node/5520439655"},"geometry":{"type":"Point","coordinates":[16.2980038,41.3204099]}},{"type":"Feature","id":"node/5520439656","properties":{"amenity":"restaurant","name":"Al Vecchio Forno in Blu","id":"node/5520439656"},"geometry":{"type":"Point","coordinates":[16.2982851,41.3203154]}},{"type":"Feature","id":"node/5520439657","properties":{"amenity":"restaurant","name":"Il Brigantino","id":"node/5520439657"},"geometry":{"type":"Point","coordinates":[16.2969497,41.3207159]}},{"type":"Feature","id":"node/6249712885","properties":{"amenity":"restaurant","cuisine":"pizza","name":"Pizzeria by La Bettola","id":"node/6249712885"},"geometry":{"type":"Point","coordinates":[16.2765187,41.3190091]}},{"type":"Feature","id":"node/6397075865","properties":{"addr:floor":"G","addr:housenumber":"2","addr:street":"Via Di Gilio","air_conditioning":"yes","amenity":"restaurant","check_date":"2022-07-20","check_date:opening_hours":"2022-04-14","cuisine":"italian;regional","indoor_seating":"yes","level":"0","name":"Osteria Bardulos","opening_hours":"Tu-Sa 12:30-15:00,20:00-23:30; Su 12:30-15:00","outdoor_seating":"yes","payment:credit_cards":"yes","payment:debit_cards":"yes","phone":"+39 0883 886618","smoking":"no","takeaway":"no","toilets":"yes","toilets:access":"customers","wheelchair":"no","id":"node/6397075865"},"geometry":{"type":"Point","coordinates":[16.2827834,41.3202094]}},{"type":"Feature","id":"node/6564488785","properties":{"addr:city":"Barletta","addr:housenumber":"52","addr:postcode":"76121","addr:street":"Piazza Marina","amenity":"restaurant","contact:phone":"+39 0883885040","cuisine":"fish;seafood;italian","name":"Lupo di Mare","operator":"Lupo di Mare s.a.s.","outdoor_seating":"yes","outdoor_seating:comfort":"lounge","website":"http://www.lupodimarebarletta.it/","id":"node/6564488785"},"geometry":{"type":"Point","coordinates":[16.2848125,41.3224113]}},{"type":"Feature","id":"node/9189989523","properties":{"addr:city":"Barletta","addr:housenumber":"9","addr:postcode":"76121","addr:street":"Via III Novembre","amenity":"restaurant","cuisine":"pizza","name":"Il Rosticciere - Forno A Legna","opening_hours":"Mo-Su 19:00-24:00","phone":"+393496410609","smoking":"no","id":"node/9189989523"},"geometry":{"type":"Point","coordinates":[16.2877405,41.3187379]}},{"type":"Feature","id":"node/9677015802","properties":{"addr:housenumber":"51","addr:street":"Via Cialdini","amenity":"restaurant","name":"Bistrot KM0","id":"node/9677015802"},"geometry":{"type":"Point","coordinates":[16.2819589,41.3211218]}},{"type":"Feature","id":"node/9870041023","properties":{"addr:housenumber":"7","addr:street":"Via Cialdini","amenity":"restaurant","check_date":"2022-07-29","internet_access":"no","name":"Goudron wine esperience","opening_hours":"Mo,We-Su 19:00-01:00; Tu off","payment:mastercard":"yes","payment:visa":"yes","wheelchair":"no","id":"node/9870041023"},"geometry":{"type":"Point","coordinates":[16.2840865,41.3208089]}},{"type":"Feature","id":"node/9870041026","properties":{"addr:housenumber":"155","addr:street":"Corso Giuseppe Garibaldi","amenity":"restaurant","check_date":"2022-07-06","cuisine":"pizza","name":"Jolly blu","id":"node/9870041026"},"geometry":{"type":"Point","coordinates":[16.2842787,41.3206287]}},{"type":"Feature","id":"node/9870041027","properties":{"addr:housenumber":"149","addr:street":"Corso Giuseppe Garibaldi","amenity":"restaurant","check_date":"2022-07-06","cuisine":"italian;regional","internet_access":"wlan","internet_access:fee":"no","name":"Samí","payment:mastercard":"yes","payment:visa":"yes","wheelchair":"yes","id":"node/9870041027"},"geometry":{"type":"Point","coordinates":[16.2841888,41.3205931]}},{"type":"Feature","id":"node/9871943389","properties":{"addr:housenumber":"19","addr:street":"Via del Duomo","amenity":"restaurant","check_date":"2022-07-07","cuisine":"italian","diet:local":"yes","diet:mediterranean":"yes","internet_access":"no","name":"Cibio","payment:mastercard":"yes","payment:visa":"yes","wheelchair":"no","id":"node/9871943389"},"geometry":{"type":"Point","coordinates":[16.2850659,41.3208167]}},{"type":"Feature","id":"node/9871943392","properties":{"addr:housenumber":"31","addr:street":"Via del Duomo","amenity":"restaurant","check_date":"2022-07-07","cuisine":"pizza;italian;regional;mediterranean","name":"D'Angiò","name:it":"Focacceria D'Angiò","id":"node/9871943392"},"geometry":{"type":"Point","coordinates":[16.285594,41.3207756]}},{"type":"Feature","id":"node/9878663660","properties":{"addr:city":"Barletta","addr:floor":"G","addr:housenumber":"76","addr:postcode":"76121","addr:street":"Via Cavour","amenity":"restaurant","check_date":"2022-07-12","cuisine":"seafood","description":"Apulian Fish Bar","diet:pescetarian":"yes","internet_access":"no","level":"0","name":"Kemare","phone":"+39 0883 893824","wheelchair":"yes","id":"node/9878663660"},"geometry":{"type":"Point","coordinates":[16.2858548,41.3192486]}},{"type":"Feature","id":"node/9878704860","properties":{"addr:housenumber":"5","addr:street":"Via Prospero Colonna","amenity":"restaurant","check_date":"2022-07-10","cuisine":"japanese","diet:meat":"yes","diet:mediterranean":"yes","diet:pescetarian":"yes","name":"Kaori","payment:mastercard":"yes","payment:visa":"yes","wheelchair":"no","id":"node/9878704860"},"geometry":{"type":"Point","coordinates":[16.2861338,41.320049]}},{"type":"Feature","id":"node/9878724504","properties":{"addr:housenumber":"42","addr:street":"Via del Duomo","amenity":"restaurant","check_date":"2022-07-10","cuisine":"italian;sushi;burger;sandwich;seafood","diet:meat":"yes","diet:mediterranean":"yes","diet:non-vegetarian":"yes","diet:omnivore":"yes","diet:pescetarian":"yes","diet:vegan":"yes","diet:vegetarian":"yes","internet_access":"no","name":"I love you - Flavours and Colours","outdoor_seating":"yes","payment:mastercard":"yes","payment:visa":"yes","wheelchair":"no","id":"node/9878724504"},"geometry":{"type":"Point","coordinates":[16.2865033,41.3207552]}},{"type":"Feature","id":"node/9883610876","properties":{"addr:housenumber":"1","addr:street":"Via San Giorgio","amenity":"restaurant","check_date":"2022-07-12","cuisine":"pizza","name":"Hipporosso","id":"node/9883610876"},"geometry":{"type":"Point","coordinates":[16.2846587,41.3206976]}},{"type":"Feature","id":"node/9884976318","properties":{"addr:housenumber":"32","addr:street":"Piazzetta del Duomo","amenity":"restaurant","bar":"yes","check_date":"2022-07-20","cuisine":"seafood","internet_access":"no","name":"La pescheria","opening_hours":"Mo-Su 10:00-24:00","outdoor_seating":"yes","payment:mastercard":"yes","payment:visa":"yes","reservation":"yes","smoking":"no","wheelchair":"no","id":"node/9884976318"},"geometry":{"type":"Point","coordinates":[16.2866499,41.3201757]}},{"type":"Feature","id":"node/9885729068","properties":{"amenity":"restaurant","name":"Molo 17","phone":"+39 0883 895467","takeaway":"yes","id":"node/9885729068"},"geometry":{"type":"Point","coordinates":[16.2963457,41.247451]}},{"type":"Feature","id":"node/9887468702","properties":{"addr:housenumber":"6","addr:street":"Via Cialdini","amenity":"restaurant","check_date":"2022-07-14","name":"Baguetteria JeaMì","payment:credit_cards":"yes","payment:mastercard":"yes","payment:visa":"yes","wheelchair":"no","id":"node/9887468702"},"geometry":{"type":"Point","coordinates":[16.284317,41.3207947]}},{"type":"Feature","id":"node/9900126835","properties":{"addr:housenumber":"8, 10, 12","addr:street":"Via Baldacchini","amenity":"restaurant","check_date":"2022-07-20","internet_access":"no","name":"Nero","payment:credit_cards":"yes","payment:mastercard":"yes","payment:visa":"yes","wheelchair":"yes","id":"node/9900126835"},"geometry":{"type":"Point","coordinates":[16.2830533,41.3201781]}},{"type":"Feature","id":"node/9900143349","properties":{"addr:housenumber":"46, 46a","addr:street":"Via Nazareth","amenity":"restaurant","check_date":"2022-07-20","cuisine":"pizza","internet_access":"no","name":"Portento","payment:credit_cards":"yes","payment:mastercard":"yes","payment:visa":"yes","wheelchair":"limited","id":"node/9900143349"},"geometry":{"type":"Point","coordinates":[16.2824893,41.3201803]}},{"type":"Feature","id":"node/9900182401","properties":{"addr:housenumber":"34, 36","addr:street":"Via Nazareth","air_conditioning":"yes","amenity":"restaurant","bar":"yes","brewery":"yes","check_date":"2022-07-20","cuisine":"sushi;japanese;seafood","description":"Sushi fusion drink","name":"Zenzero","opening_hours":"Mo-Sa 20:00-23:30; Su 11:00-14:30,20:00-23:30","outdoor_seating":"yes","payment:credit_cards":"yes","payment:mastercard":"yes","payment:visa":"yes","smoking":"no","id":"node/9900182401"},"geometry":{"type":"Point","coordinates":[16.2822539,41.3198242]}},{"type":"Feature","id":"node/9903602296","properties":{"addr:housenumber":"4, 5","addr:street":"Vico Ospizio","air_conditioning":"yes","amenity":"restaurant","bar":"yes","check_date":"2022-07-22","cuisine":"italian","diet:mediterranean":"yes","name":"Grand Bistrot","outdoor_seating":"yes","source":"survey","id":"node/9903602296"},"geometry":{"type":"Point","coordinates":[16.2808973,41.3190106]}},{"type":"Feature","id":"node/9909330453","properties":{"addr:housenumber":"15, 17","addr:street":"Via Samuelli","amenity":"restaurant","check_date":"2022-07-25","cuisine":"pizza;italian","diet:mediterranean":"yes","internet_access":"no","name":"La stradina","phone":"+39 0883 348159; +39 346 665 3407; +39 338 298 2646","smoking":"no","takeaway":"yes","wheelchair":"no","id":"node/9909330453"},"geometry":{"type":"Point","coordinates":[16.2816711,41.3197142]}},{"type":"Feature","id":"node/9919540460","properties":{"addr:housenumber":"16","addr:street":"Via del Duomo","amenity":"restaurant","check_date":"2022-07-29","cuisine":"italian;local;Puccia","diet:mediterranean":"yes","internet_access":"no","name":"PucciArè","payment:credit_cards":"yes","payment:mastercard":"yes","payment:visa":"yes","wheelchair":"no","id":"node/9919540460"},"geometry":{"type":"Point","coordinates":[16.2849215,41.3207337]}},{"type":"Feature","id":"node/9919540461","properties":{"addr:housenumber":"10","addr:street":"Via Sant'Andrea","amenity":"restaurant","check_date":"2022-07-29","internet_access":"no","name":"Tutti PAZZI per i FRITTI","payment:credit_cards":"yes","payment:mastercard":"yes","payment:visa":"yes","wheelchair":"no","id":"node/9919540461"},"geometry":{"type":"Point","coordinates":[16.2846583,41.3209499]}},{"type":"Feature","id":"node/9919540462","properties":{"addr:housenumber":"9","addr:street":"Via Sant'Andrea","amenity":"restaurant","check_date":"2022-07-29","name":"Essenza - Slow food","name:it":"Essenza - Cibo lento","id":"node/9919540462"},"geometry":{"type":"Point","coordinates":[16.2845129,41.3209866]}},{"type":"Feature","id":"node/9919618514","properties":{"addr:housenumber":"30","addr:street":"Piazza Marina","amenity":"restaurant","check_date":"2022-07-29","cuisine":"italian","description":"1 Michelin Star Restaurant","diet:mediterranean":"yes","name":"Bacco","id":"node/9919618514"},"geometry":{"type":"Point","coordinates":[16.2843851,41.3224517]}},{"type":"Feature","id":"node/9919618515","properties":{"addr:housenumber":"32","addr:street":"Piazza Marina","amenity":"restaurant","check_date":"2022-07-29","internet_access":"no","name":"Il Calamaro","payment:mastercard":"yes","payment:visa":"yes","wheelchair":"no","id":"node/9919618515"},"geometry":{"type":"Point","coordinates":[16.2843522,41.322687]}},{"type":"Feature","id":"node/9919618516","properties":{"addr:street":"Piazza Marina","amenity":"restaurant","check_date":"2022-07-29","internet_access":"wlan","internet_access:fee":"no","name":"Play Planet","payment:mastercard":"yes","payment:visa":"yes","wheelchair":"limited","id":"node/9919618516"},"geometry":{"type":"Point","coordinates":[16.284171,41.3219988]}},{"type":"Feature","id":"node/9919628217","properties":{"addr:street":"Via Marina","amenity":"restaurant","check_date":"2022-07-29","cuisine":"italian","diet:mediterranean":"yes","internet_access":"no","name":"Antica Cucina","payment:mastercard":"yes","payment:visa":"yes","wheelchair":"limited","id":"node/9919628217"},"geometry":{"type":"Point","coordinates":[16.2843045,41.3219948]}},{"type":"Feature","id":"node/9919658885","properties":{"addr:housenumber":"25","addr:street":"Via Albamonte","amenity":"restaurant","check_date":"2022-07-29","cuisine":"pizza","internet_access":"no","name":"Crazy Pizza","wheelchair":"no","id":"node/9919658885"},"geometry":{"type":"Point","coordinates":[16.2866762,41.3200252]}},{"type":"Feature","id":"node/9919658888","properties":{"addr:housenumber":"5","addr:street":"Via Michele Genovese","amenity":"restaurant","check_date":"2022-07-29","cuisine":"pizza;italian","delivery":"yes","internet_access":"no","name":"L'Ancora","outdoor_seating":"yes","payment:credit_cards":"yes","payment:mastercard":"yes","payment:visa":"yes","smoking":"no","wheelchair":"no","id":"node/9919658888"},"geometry":{"type":"Point","coordinates":[16.2874012,41.3194617]}},{"type":"Feature","id":"node/9938210753","properties":{"addr:street":"Via San Samuele","amenity":"restaurant","cuisine":"pizza","name":"Zio Tom","id":"node/9938210753"},"geometry":{"type":"Point","coordinates":[16.2746178,41.3221822]}},{"type":"Feature","id":"node/9939586835","properties":{"amenity":"restaurant","cuisine":"sushi","name":"Kyoto Sushi","phone":"+39 388 889 2897","website":"http://kyotobarletta.com/","id":"node/9939586835"},"geometry":{"type":"Point","coordinates":[16.2918249,41.3186204]}}]}