{"type":"FeatureCollection","features":[{"type":"Feature","id":"node/565693460","properties":{"amenity":"drinking_water","id":"node/565693460"},"geometry":{"type":"Point","coordinates":[16.2706504,41.3054294]}},{"type":"Feature","id":"node/565693470","properties":{"amenity":"drinking_water","id":"node/565693470"},"geometry":{"type":"Point","coordinates":[16.2729863,41.3106939]}},{"type":"Feature","id":"node/565693471","properties":{"amenity":"drinking_water","id":"node/565693471"},"geometry":{"type":"Point","coordinates":[16.2747114,41.3101077]}},{"type":"Feature","id":"node/565693540","properties":{"amenity":"drinking_water","check_date":"2021-08-18","id":"node/565693540"},"geometry":{"type":"Point","coordinates":[16.2766246,41.3219582]}},{"type":"Feature","id":"node/566812253","properties":{"amenity":"drinking_water","id":"node/566812253"},"geometry":{"type":"Point","coordinates":[16.2874497,41.3159695]}},{"type":"Feature","id":"node/633291822","properties":{"amenity":"drinking_water","id":"node/633291822"},"geometry":{"type":"Point","coordinates":[16.2628588,41.3084285]}},{"type":"Feature","id":"node/639924233","properties":{"amenity":"drinking_water","check_date":"2021-08-15","id":"node/639924233"},"geometry":{"type":"Point","coordinates":[16.26655,41.3128101]}},{"type":"Feature","id":"node/639924236","properties":{"amenity":"drinking_water","id":"node/639924236"},"geometry":{"type":"Point","coordinates":[16.2648597,41.3154302]}},{"type":"Feature","id":"node/639924241","properties":{"amenity":"drinking_water","check_date":"2021-08-15","id":"node/639924241"},"geometry":{"type":"Point","coordinates":[16.2710699,41.31443]}},{"type":"Feature","id":"node/639924244","properties":{"amenity":"drinking_water","check_date":"2022-04-14","id":"node/639924244"},"geometry":{"type":"Point","coordinates":[16.2757073,41.3144493]}},{"type":"Feature","id":"node/639924279","properties":{"amenity":"drinking_water","check_date":"2021-10-17","id":"node/639924279"},"geometry":{"type":"Point","coordinates":[16.2833976,41.3236067]}},{"type":"Feature","id":"node/766706101","properties":{"amenity":"drinking_water","id":"node/766706101"},"geometry":{"type":"Point","coordinates":[16.2794039,41.3055475]}},{"type":"Feature","id":"node/766706102","properties":{"amenity":"drinking_water","id":"node/766706102"},"geometry":{"type":"Point","coordinates":[16.2641916,41.3181181]}},{"type":"Feature","id":"node/1952387625","properties":{"amenity":"drinking_water","id":"node/1952387625"},"geometry":{"type":"Point","coordinates":[16.2773029,41.3194335]}},{"type":"Feature","id":"node/3506768480","properties":{"amenity":"drinking_water","id":"node/3506768480"},"geometry":{"type":"Point","coordinates":[16.2271573,41.2892588]}},{"type":"Feature","id":"node/4006102603","properties":{"amenity":"drinking_water","id":"node/4006102603"},"geometry":{"type":"Point","coordinates":[16.2694153,41.3224145]}},{"type":"Feature","id":"node/4006138141","properties":{"amenity":"drinking_water","id":"node/4006138141"},"geometry":{"type":"Point","coordinates":[16.2728503,41.3201373]}},{"type":"Feature","id":"node/5352304934","properties":{"access":"yes","amenity":"drinking_water","bottle":"yes","fee":"no","wheelchair":"yes","id":"node/5352304934"},"geometry":{"type":"Point","coordinates":[16.2868437,41.3203512]}},{"type":"Feature","id":"node/5352304935","properties":{"access":"yes","amenity":"drinking_water","bottle":"yes","fee":"no","operator":"Bar.S.A.","wheelchair":"yes","id":"node/5352304935"},"geometry":{"type":"Point","coordinates":[16.2875009,41.3193534]}},{"type":"Feature","id":"node/5352369477","properties":{"amenity":"drinking_water","id":"node/5352369477"},"geometry":{"type":"Point","coordinates":[16.2786532,41.3163858]}},{"type":"Feature","id":"node/5352403626","properties":{"amenity":"drinking_water","id":"node/5352403626"},"geometry":{"type":"Point","coordinates":[16.2843929,41.3184348]}},{"type":"Feature","id":"node/5352457051","properties":{"amenity":"drinking_water","id":"node/5352457051"},"geometry":{"type":"Point","coordinates":[16.2942366,41.3215471]}},{"type":"Feature","id":"node/5352521111","properties":{"amenity":"drinking_water","id":"node/5352521111"},"geometry":{"type":"Point","coordinates":[16.2788882,41.3111668]}},{"type":"Feature","id":"node/5352539356","properties":{"amenity":"drinking_water","id":"node/5352539356"},"geometry":{"type":"Point","coordinates":[16.2798176,41.3213144]}},{"type":"Feature","id":"node/9202634683","properties":{"access":"yes","amenity":"drinking_water","operator":"AQP","wheelchair":"yes","id":"node/9202634683"},"geometry":{"type":"Point","coordinates":[16.2667687,41.3158067]}},{"type":"Feature","id":"node/9202656983","properties":{"access":"yes","amenity":"drinking_water","operator":"AQP","wheelchair":"yes","id":"node/9202656983"},"geometry":{"type":"Point","coordinates":[16.2658847,41.3155742]}},{"type":"Feature","id":"node/9671563170","properties":{"amenity":"drinking_water","id":"node/9671563170"},"geometry":{"type":"Point","coordinates":[16.2907187,41.2411882]}},{"type":"Feature","id":"node/9671599087","properties":{"amenity":"drinking_water","id":"node/9671599087"},"geometry":{"type":"Point","coordinates":[16.2830756,41.3209849]}},{"type":"Feature","id":"node/9671599090","properties":{"amenity":"drinking_water","id":"node/9671599090"},"geometry":{"type":"Point","coordinates":[16.2812419,41.3208206]}},{"type":"Feature","id":"node/9871949396","properties":{"access":"yes","addr:floor":"G","amenity":"drinking_water","bottle":"yes","covered":"no","fee":"no","indoor":"no","lit":"no","wheelchair":"yes","id":"node/9871949396"},"geometry":{"type":"Point","coordinates":[16.2880406,41.3201161]}},{"type":"Feature","id":"node/9900237284","properties":{"access":"yes","amenity":"drinking_water","bottle":"yes","covered":"no","fee":"no","indoor":"no","lit":"yes","operator":"Comune di Barletta","wheelchair":"yes","id":"node/9900237284"},"geometry":{"type":"Point","coordinates":[16.2770451,41.3204137]}}]}